{"type": "FeatureCollection", "crs": {"type": "name", "properties": {"name": "urn:ogc:def:crs:EPSG::32640"}}, "features": [{"type": "Feature", "properties": {"level": 0.08333333333333333, "label": "5 min"}, "geometry": {"type": "LineString", "coordinates": [[692918.3915815341, 2574928.686731719], [692918.3915662649, 2574928.6867317185], [692908.3915815341, 2574918.6867469875], [692908.3915697957, 2574908.686746988], [692908.3915683771, 2574898.686746988], [692908.391566265, 2574898.686741517], [692898.391571736, 2574888.686746988], [692898.3915689461, 2574878.6867469884], [692898.391566265, 2574878.686734842], [692888.3915784109, 2574868.686746988], [692888.3915731958, 2574858.686746988], [692888.3915731958, 2574848.686746988], [692888.3915731958, 2574838.686746988], [692898.3915662651, 2574828.686753919], [692898.3915734581, 2574828.686746988], [692908.391566265, 2574818.686754181], [692908.3916061914, 2574818.686746988], [692918.391566265, 2574808.6867869142], [692918.3915669919, 2574808.686746988], [692918.391566265, 2574808.686744726], [692908.3915685272, 2574798.686746988], [692908.391566265, 2574798.6867447514], [692898.391566265, 2574798.6867447514], [692888.391566265, 2574798.6867447514], [692878.391566265, 2574798.686707333], [692868.3916059202, 2574788.686746988], [692868.3915674735, 2574778.686746988], [692868.391566265, 2574778.6867451747], [692858.3915662651, 2574778.6867345874], [692848.391566265, 2574778.6867345874], [692838.391566265, 2574778.6867345874], [692828.3915786657, 2574768.686746988], [692828.3915662651, 2574768.6867452096], [692818.391566265, 2574768.6867428636], [692808.3915703897, 2574758.686746988], [692808.391566265, 2574758.6867449405], [692798.3915662649, 2574758.686740267], [692788.3915729859, 2574748.686746988], [692788.391566265, 2574748.6867395975], [692778.3915736554, 2574738.686746988], [692778.391566265, 2574738.68673878], [692768.3915744732, 2574728.686746988], [692768.391566265, 2574728.6867359807], [692758.3915772722, 2574718.6867469875], [692758.391575888, 2574708.686746988], [692758.391575888, 2574698.686746988], [692758.391575888, 2574688.686746988], [692758.391575888, 2574678.686746988], [692758.391575888, 2574668.686746988], [692758.391575888, 2574658.686746988], [692758.391575888, 2574648.686746988], [692758.391575888, 2574638.686746988], [692758.391575888, 2574628.686746988], [692758.391575888, 2574618.686746988], [692758.391566265, 2574618.686741085], [692748.3915721679, 2574608.686746988], [692748.391566265, 2574608.6867410853], [692738.3915721679, 2574598.686746988], [692738.391566265, 2574598.6867410853], [692728.3915721679, 2574588.686746988], [692728.391566265, 2574588.6867410853], [692718.3915721679, 2574578.686746988], [692718.391566265, 2574578.686718572], [692708.3915946807, 2574568.686746988], [692708.3915692196, 2574558.6867469875], [692708.391566265, 2574558.686740925], [692698.3915723278, 2574548.686746988], [692698.3915686822, 2574538.686746988], [692698.391566265, 2574538.686742825], [692688.3915704282, 2574528.686746988], [692688.391566265, 2574528.6867319928], [692678.3915812602, 2574518.686746988], [692678.3915704797, 2574508.686746988], [692678.391566265, 2574508.6867342973], [692668.3915789557, 2574498.686746988], [692668.391566265, 2574498.6867436995], [692658.391566265, 2574498.6867436995], [692648.391566265, 2574498.6867436995], [692638.3915695534, 2574488.686746988], [692638.3915662649, 2574488.686741513], [692628.3915717398, 2574478.686746988], [692628.3915672558, 2574468.686746988], [692628.391566265, 2574468.686745853], [692618.3915673994, 2574458.6867469875], [692618.391566265, 2574458.6867455277], [692608.391566265, 2574458.6867440618], [692608.3915407469, 2574458.686746988], [692598.3915662651, 2574468.68672147], [692588.391566265, 2574468.68672147]]}}, {"type": "Feature", "properties": {"level": 0.08333333333333333, "label": "5 min"}, "geometry": {"type": "LineString", "coordinates": [[694198.3915639553, 2573958.686746988], [694198.3915639553, 2573968.686746988], [694198.3915639553, 2573978.686746988], [694198.3915639553, 2573988.686746988], [694198.3915639553, 2573998.6867469875], [694198.3915639553, 2574008.686746988], [694198.3915639553, 2574018.686746988], [694198.3915639553, 2574028.686746988], [694198.3915639553, 2574038.686746988], [694198.391566265, 2574038.68675393], [694208.391559323, 2574048.686746988], [694208.3915662649, 2574048.6867539296], [694218.391559323, 2574058.6867469875], [694218.391566265, 2574058.6867539296], [694228.391559323, 2574068.6867469875], [694228.391566265, 2574068.6867539296], [694238.391559323, 2574078.6867469875], [694238.3915662649, 2574078.6867539296], [694248.391559323, 2574088.686746988], [694248.3915637055, 2574098.686746988], [694248.3915637055, 2574108.686746988], [694248.3915637055, 2574118.686746988], [694248.3915623176, 2574128.686746988], [694238.3915662649, 2574138.6867430406], [694238.3915649878, 2574138.686746988], [694238.3915639898, 2574148.686746988], [694238.3915558564, 2574158.686746988], [694228.391566265, 2574168.6867365795], [694228.3915646668, 2574168.686746988], [694228.3915640138, 2574178.686746988], [694228.3915638914, 2574188.686746988], [694228.3915630057, 2574198.686746988], [694228.3915610653, 2574208.686746988], [694228.3915534168, 2574218.6867469884], [694218.391566265, 2574228.68673414], [694208.3915662649, 2574228.686746121], [694198.391566265, 2574228.686746121], [694188.391566265, 2574228.686746121], [694178.3915662651, 2574228.6867460706], [694168.3915662649, 2574228.686745972], [694168.3915649942, 2574228.6867469875], [694168.391566265, 2574228.6867485056], [694178.3915647478, 2574238.686746988], [694178.391566265, 2574238.686748695], [694188.3915645578, 2574248.686746988], [694188.391566265, 2574248.6867489396], [694198.3915643136, 2574258.686746988], [694198.3915662651, 2574258.686753392], [694208.3915598608, 2574268.686746988], [694208.3915598608, 2574278.686746988], [694208.3915598608, 2574288.686746988], [694198.3915662651, 2574298.6867405837], [694198.3915649428, 2574298.686746988], [694198.3915631634, 2574308.686746988], [694188.391566265, 2574318.6867438867], [694188.391564, 2574318.686746988], [694178.391566265, 2574328.686744723], [694168.391566265, 2574328.6867456594], [694168.3915614642, 2574328.686746988], [694158.3915662649, 2574338.686742187], [694148.391566265, 2574338.686745946], [694148.3915647581, 2574338.686746988], [694138.391566265, 2574348.686745481], [694138.3915623802, 2574348.686746988], [694128.391566265, 2574358.6867431034], [694128.3915643725, 2574358.686746988], [694128.3915643725, 2574368.686746988], [694128.3915643725, 2574378.686746988], [694128.3915639514, 2574388.686746988], [694118.391566265, 2574398.686744674], [694118.39156455, 2574398.686746988], [694108.391566265, 2574408.686745273], [694108.3915653713, 2574408.686746988], [694108.3915653713, 2574418.686746988], [694108.3915653713, 2574428.686746988], [694108.3915653646, 2574438.686746988], [694108.3915653646, 2574448.686746988], [694108.3915653646, 2574458.686746988], [694108.3915653604, 2574468.686746988], [694108.3915653394, 2574478.686746988], [694108.3915653176, 2574488.686746988], [694108.3915649762, 2574498.6867469875], [694108.3915638668, 2574508.6867469884], [694108.3915630947, 2574518.686746988], [694108.3915615899, 2574528.6867469875], [694108.3915573662, 2574538.686746988], [694108.3914740924, 2574548.686746988], [694098.3915662651, 2574558.6866548155], [694098.3915641768, 2574558.686746988], [694098.3915639552, 2574568.686746988], [694098.3915639552, 2574578.686746988], [694098.3915639552, 2574588.686746988], [694098.3915639552, 2574598.686746988], [694098.3915639552, 2574608.686746988], [694098.3915639552, 2574618.686746988], [694098.3915639552, 2574628.686746988], [694098.3915639552, 2574638.686746988], [694098.3915639552, 2574648.686746988], [694098.3915639552, 2574658.686746988], [694098.3915509959, 2574668.6867469875], [694088.3915662649, 2574678.6867317185], [694078.391566265, 2574678.6867317185], [694068.3915662649, 2574678.6867317185], [694058.391566265, 2574678.6867317185], [694048.3915662649, 2574678.6867317185], [694038.391566265, 2574678.6867317185], [694028.3915662649, 2574678.6867317185], [694018.391566265, 2574678.6867317185], [694008.391566265, 2574678.6867317185], [693998.391566265, 2574678.6867317185], [693988.391566265, 2574678.6867317185], [693978.3915662649, 2574678.6867317185], [693968.391566265, 2574678.6867317185], [693958.3915662649, 2574678.6867317185], [693948.391566265, 2574678.6867317185], [693948.3915639552, 2574678.686746988], [693948.3915639552, 2574688.686746988], [693948.3915639552, 2574698.686746988], [693948.3915639552, 2574708.686746988], [693948.3915509959, 2574718.686746988], [693938.3915662649, 2574728.686731719], [693928.391566265, 2574728.686731719], [693918.3915662649, 2574728.686731719], [693908.391566265, 2574728.686731719], [693898.391566265, 2574728.686731719], [693898.3915639552, 2574728.686746988], [693898.3915639552, 2574738.686746988], [693898.3915639552, 2574748.686746988], [693898.3915639552, 2574758.686746988], [693898.3915639552, 2574768.686746988], [693898.3915072146, 2574778.686746988], [693888.391566265, 2574788.6866879375], [693888.3915618601, 2574788.686746988], [693878.391566265, 2574798.686742583], [693878.3915639772, 2574798.686746988], [693868.391566265, 2574808.6867447], [693868.3915647198, 2574808.686746988], [693868.3915608935, 2574818.686746988], [693858.391566265, 2574828.6867416166], [693858.3915637413, 2574828.686746988], [693848.3915662649, 2574838.6867444646], [693848.3915646792, 2574838.686746988], [693848.3915608104, 2574848.6867469884], [693838.391566265, 2574858.6867415337], [693838.3915639264, 2574858.686746988], [693828.391566265, 2574868.686744649], [693828.3915614058, 2574868.6867469875], [693828.3915614058, 2574878.6867469875], [693828.3915614058, 2574888.686746988], [693818.391566265, 2574898.686742129], [693818.3915596352, 2574898.686746988], [693808.391566265, 2574908.686740358], [693798.3915662649, 2574908.68674602], [693798.3915602543, 2574908.686746988], [693788.391566265, 2574918.686740977], [693788.3915651109, 2574918.686746988], [693788.3915639071, 2574928.6867469884], [693778.3915662651, 2574938.6867446303], [693768.391566265, 2574938.6867446303], [693758.391566265, 2574938.6867446303], [693758.3915651686, 2574938.686746988], [693758.3915651686, 2574948.686746988], [693758.3915651686, 2574958.686746988], [693758.3915645975, 2574968.686746988], [693758.3915515192, 2574978.6867469875], [693748.3915662649, 2574988.686732242], [693748.3915652168, 2574988.686746988], [693738.3915662651, 2574998.68674594], [693738.3915644453, 2574998.6867469884], [693728.3915662651, 2575008.6867451686], [693718.391566265, 2575008.6867451686], [693708.391566265, 2575008.6867451686], [693698.3915680848, 2574998.6867469884], [693698.391566265, 2574998.6867462345], [693688.391566265, 2574998.686744119], [693678.3915691337, 2574988.686746988], [693678.391566265, 2574988.6867456203], [693668.3915676326, 2574978.686746988], [693668.391566933, 2574968.686746988], [693668.3915668208, 2574958.686746988], [693668.391566265, 2574958.686746443], [693658.391566265, 2574958.686746443], [693648.391566265, 2574958.686746443], [693648.3915650386, 2574958.686746988], [693638.391566265, 2574968.686745762], [693638.3915654062, 2574968.686746988], [693628.3915662651, 2574978.6867461293], [693618.391566265, 2574978.6867461293], [693608.391566265, 2574978.6867461293], [693598.391566265, 2574978.686746251], [693598.3915649179, 2574978.686746988], [693588.391566265, 2574988.686745641], [693588.3915630757, 2574988.686746988], [693578.391566265, 2574998.6867437987], [693578.3915602867, 2574998.686746988], [693568.391566265, 2575008.68674101], [693568.3915186623, 2575008.6867469884], [693558.391566265, 2575018.6866993858], [693548.391566265, 2575018.686745213], [693548.3915509959, 2575018.6867469875], [693538.391566265, 2575028.6867317185], [693528.3915662649, 2575028.6867317185], [693518.391566265, 2575028.6867317185], [693508.391566265, 2575028.6867317185], [693498.391566265, 2575028.6867317185], [693488.391566265, 2575028.6867317185], [693478.3915662649, 2575028.6867317185], [693468.391566265, 2575028.6867317185], [693458.3915662649, 2575028.6867317185], [693448.391566265, 2575028.6867317185], [693438.3915662649, 2575028.6867317185], [693428.391566265, 2575028.6867317185], [693418.3915662649, 2575028.6867317185], [693408.391566265, 2575028.6867317185], [693398.391566265, 2575028.6867317185], [693388.391566265, 2575028.6867317185], [693378.391566265, 2575028.6867317185], [693368.391566265, 2575028.6867317185], [693358.391566265, 2575028.6867317185], [693348.3915662649, 2575028.6867317185], [693338.391566265, 2575028.6867317185], [693328.3915662649, 2575028.6867317185], [693318.391566265, 2575028.6867317185], [693308.3915662649, 2575028.6867317185], [693298.391566265, 2575028.6867317185], [693288.3915662649, 2575028.6867317185], [693278.391566265, 2575028.6867317185], [693268.391566265, 2575028.6867317185], [693258.3915815342, 2575018.6867469875], [693258.391575888, 2575008.686746988], [693258.391575888, 2574998.686746988], [693258.391575888, 2574988.686746988], [693258.391575888, 2574978.686746988], [693258.391566265, 2574978.686731719], [693248.391566265, 2574978.686731719], [693238.391566265, 2574978.686731719], [693228.391566265, 2574978.686731719], [693218.3915662649, 2574978.686731719], [693208.391566265, 2574978.686731719], [693198.3915662649, 2574978.686731719], [693188.391566265, 2574978.686731719], [693178.3915662649, 2574978.686731719], [693168.391566265, 2574978.686731719], [693158.3915662649, 2574978.686731719], [693148.391566265, 2574978.686731719], [693138.391566265, 2574978.686731719], [693128.391566265, 2574978.686731719], [693118.391566265, 2574978.686731719], [693108.391566265, 2574978.686731719], [693098.391566265, 2574978.686731719], [693088.3915662649, 2574978.686731719], [693078.391566265, 2574978.686731719], [693068.3915662649, 2574978.686731719], [693058.391566265, 2574978.686731719], [693048.3915662649, 2574978.686731719], [693038.391566265, 2574978.686731719], [693028.3915662649, 2574978.686731719], [693018.391566265, 2574978.686731719], [693008.391566265, 2574978.686731719], [692998.391566265, 2574978.686731719], [692988.391566265, 2574978.686731719], [692978.3915662649, 2574978.686731719], [692968.391566265, 2574978.686731719], [692958.3915815341, 2574968.686746988], [692958.391575888, 2574958.686746988], [692958.391575888, 2574948.686746988], [692958.391575888, 2574938.686746988], [692958.391575888, 2574928.686746988], [692958.3915662649, 2574928.6867317185], [692948.391566265, 2574928.6867317185], [692938.3915662649, 2574928.6867317185], [692938.3915509959, 2574928.6867317185]]}}, {"type": "Feature", "properties": {"level": 0.08333333333333333, "label": "5 min"}, "geometry": {"type": "LineString", "coordinates": [[693318.391566265, 2573398.686753312], [693328.3915599409, 2573408.6867469884], [693328.3915642536, 2573418.686746988], [693328.391566265, 2573418.6868394725], [693338.3914737804, 2573428.686746988], [693338.3914737804, 2573438.686746988], [693338.3914737804, 2573448.686746988], [693328.391566265, 2573458.6866545035], [693328.3915653621, 2573458.6867469875], [693328.3915654502, 2573468.686746988], [693328.391566265, 2573468.686748102], [693338.391566265, 2573468.686748514], [693348.391566265, 2573468.6867532525], [693358.3915600006, 2573478.686746988], [693358.391566265, 2573478.686811795], [693368.3915014584, 2573488.686746988], [693368.3915651091, 2573498.686746988], [693368.391566265, 2573498.686749133], [693378.3915641201, 2573508.686746988], [693378.391566265, 2573508.6867563287], [693388.3915569244, 2573518.686746988], [693388.3915642456, 2573528.686746988], [693388.3915662651, 2573528.6867534663], [693398.3915597867, 2573538.686746988], [693398.3915644216, 2573548.686746988], [693398.391566265, 2573548.6867519473], [693408.3915613062, 2573558.6867469884], [693408.391566265, 2573558.686750023], [693418.39156323, 2573568.6867469884], [693418.391566265, 2573568.6867487133], [693428.3915645399, 2573578.686746988], [693428.391566265, 2573578.686748193], [693438.391566265, 2573578.6867532856], [693448.3915599673, 2573588.686746988], [693448.391566265, 2573588.6867491095], [693458.391566265, 2573588.6867491095], [693468.391566265, 2573588.6867491095], [693478.391566265, 2573588.6867491095], [693488.391566265, 2573588.6867491095], [693498.3915662651, 2573588.6867491095], [693508.3915662651, 2573588.6867491095], [693518.391566265, 2573588.686748987], [693518.3916284553, 2573588.686746988], [693528.391566265, 2573578.686809178], [693538.3915662651, 2573578.6867519156], [693548.391566265, 2573578.6867495533], [693558.3915662649, 2573578.6867487095], [693568.391566265, 2573578.686748525], [693578.391566265, 2573578.686748525], [693588.391566265, 2573578.686748525], [693598.3915662649, 2573578.6867490825], [693608.391566265, 2573578.686750819], [693618.391566265, 2573578.686750858], [693628.391566265, 2573578.686748015], [693628.3915681401, 2573578.686746988], [693638.391566265, 2573568.686748863], [693638.3915764081, 2573568.686746988], [693648.391566265, 2573558.686757131], [693648.391567322, 2573558.686746988], [693648.3915698193, 2573548.686746988], [693658.391566265, 2573538.6867505424], [693658.3915669422, 2573538.686747665]]}}, {"type": "Feature", "properties": {"level": 0.16666666666666666, "label": "10 min"}, "geometry": {"type": "LineString", "coordinates": [[696458.3915715215, 2575748.6867417316], [696458.391566265, 2575678.68671645], [696198.3915002585, 2575678.686746988], [696198.3915528753, 2575758.6867335984]]}}, {"type": "Feature", "properties": {"level": 0.16666666666666666, "label": "10 min"}, "geometry": {"type": "LineString", "coordinates": [[694333.7169067768, 2573773.3614064762], [694318.391566265, 2573769.115734559], [694308.391585511, 2573768.686746988], [694308.391585511, 2573698.686746988], [694368.391566265, 2573638.686751231], [694408.391585511, 2573638.686746988], [694408.391585511, 2573548.686746988], [694418.391566265, 2573538.686766234], [694518.3915697415, 2573538.686746988], [694568.391566265, 2573488.686751231], [694658.391585511, 2573488.686746988], [694658.391585511, 2573448.686746988], [694668.391566265, 2573438.686766234], [695048.391566265, 2573438.686755563], [695098.391566265, 2573488.686751231], [695298.391566265, 2573488.6867555627], [695348.391566265, 2573538.686751231], [695488.391566265, 2573538.6867516073], [695498.3915616455, 2573548.6867469875], [695498.391566265, 2573588.6867555627], [695548.391566265, 2573638.686751231], [695638.391566265, 2573638.6867516073], [695648.3915616457, 2573648.686746988], [695648.391566265, 2573688.6867512306], [695688.391566265, 2573688.6867516073], [695698.3915616455, 2573698.686746988], [695698.391566265, 2573738.686751231], [695788.391566265, 2573738.6867516073], [695798.3915616455, 2573748.686746988], [695798.391566265, 2573788.6867512306], [695838.3915662649, 2573788.6867516073], [695848.3915616455, 2573798.6867469875], [695848.3915662651, 2573838.686751231], [695898.391566265, 2573838.686755563], [695998.3915576903, 2573938.686746988], [695998.391566265, 2574138.686755563], [696098.391566265, 2574238.6867512306], [696138.391566265, 2574238.6867516073], [696148.3915616455, 2574248.686746988], [696148.391566265, 2574338.686755563], [696298.391566265, 2574488.686751231], [696338.391566265, 2574488.6867516073], [696348.3915616457, 2574498.686746988], [696348.391566265, 2574588.686751231], [696388.391566265, 2574588.6867516073], [696398.3915616455, 2574598.686746988], [696398.3915662651, 2574688.6867512306], [696438.391566265, 2574688.6867516073], [696448.3915616455, 2574698.686746988], [696448.391566265, 2574788.6867512306], [696488.391566265, 2574788.6867516073], [696498.3915616455, 2574798.6867469875], [696498.391566265, 2574938.6867524413], [696508.391566265, 2574938.686815485], [696518.391566265, 2574948.6867508255], [696528.391566265, 2574948.6867578756], [696548.3915625256, 2574968.686746988], [696548.391566265, 2575018.6867511705], [696578.3915637558, 2575048.686746988], [696578.391566265, 2575068.6867624004], [696598.3915567191, 2575088.686746988], [696598.391566265, 2575238.6867512306], [696648.391566265, 2575238.6867495156]]}}, {"type": "Feature", "properties": {"level": 0.25, "label": "15 min"}, "geometry": {"type": "LineString", "coordinates": [[693868.391566265, 2570928.686746988], [693868.391566265, 2570918.686746988], [693868.391566265, 2570908.686746988], [693868.391566265, 2570898.686746988], [693868.391566265, 2570898.686746988], [693878.391566265, 2570898.686746988], [693888.391566265, 2570898.686746988], [693898.391566265, 2570898.686746988], [693908.391566265, 2570898.686746988], [693918.391566265, 2570898.686746988], [693928.391566265, 2570898.686746988], [693938.391566265, 2570898.686746988], [693948.391566265, 2570898.686746988], [693958.391566265, 2570898.686746988], [693968.391566265, 2570898.686746988], [693978.391566265, 2570898.686746988], [693988.391566265, 2570898.686746988], [693998.391566265, 2570898.686746988], [694008.391566265, 2570898.686746988], [694018.391566265, 2570898.686746988], [694028.391566265, 2570898.686746988], [694038.391566265, 2570898.686746988], [694048.391566265, 2570898.686746988], [694058.391566265, 2570898.686746988], [694068.391566265, 2570898.686746988], [694078.391566265, 2570898.686746988], [694088.391566265, 2570898.686746988], [694098.391566265, 2570898.686746988], [694108.391566265, 2570898.686746988], [694118.391566265, 2570898.686746988], [694128.391566265, 2570898.686746988], [694138.391566265, 2570898.686746988], [694138.391566265, 2570898.686746988], [694138.391566265, 2570908.686746988], [694138.391566265, 2570918.686746988], [694138.391566265, 2570928.686746988], [694138.391566265, 2570938.686746988], [694148.391566265, 2570948.686746988], [694158.391566265, 2570948.686746988], [694168.391566265, 2570948.686746988], [694178.391566265, 2570948.686746988], [694188.391566265, 2570948.686746988], [694198.391566265, 2570948.686746988], [694208.391566265, 2570948.686746988], [694218.391566265, 2570948.686746988], [694228.391566265, 2570938.686746988], [694228.391566265, 2570938.686746988], [694238.391566265, 2570928.686746988], [694238.391566265, 2570928.686746988], [694248.391566265, 2570918.686746988], [694248.391566265, 2570918.686746988], [694258.391566265, 2570908.686746988], [694258.391566265, 2570908.686746988], [694268.391566265, 2570898.686746988], [694268.391566265, 2570898.686746988], [694278.391566265, 2570898.686746988], [694288.391566265, 2570898.686746988], [694298.391566265, 2570898.686746988], [694298.391566265, 2570898.686746988], [694308.391566265, 2570908.686746988], [694308.391566265, 2570908.686746988], [694318.391566265, 2570918.686746988], [694318.391566265, 2570918.686746988], [694328.391566265, 2570928.686746988], [694338.391566265, 2570928.686746988], [694348.391566265, 2570928.686746988], [694358.391566265, 2570918.686746988], [694358.391566265, 2570918.686746988], [694368.391566265, 2570908.686746988], [694368.391566265, 2570908.686746988], [694378.391566265, 2570898.686746988], [694378.391566265, 2570888.686746988], [694378.391566265, 2570878.686746988], [694378.391566265, 2570868.686746988], [694378.391566265, 2570858.686746988], [694378.391566265, 2570858.686746988], [694388.391566265, 2570848.686746988], [694388.391566265, 2570848.686746988], [694398.391566265, 2570848.686746988], [694408.391566265, 2570848.686746988], [694408.391566265, 2570848.686746988], [694418.391566265, 2570858.686746988], [694418.391566265, 2570858.686746988], [694418.391566265, 2570868.686746988], [694428.391566265, 2570878.686746988], [694428.391566265, 2570878.686746988], [694428.391566265, 2570888.686746988], [694428.391566265, 2570898.686746988], [694428.391566265, 2570908.686746988], [694428.391566265, 2570918.686746988], [694438.391566265, 2570928.686746988], [694438.391566265, 2570928.686746988], [694438.391566265, 2570938.686746988], [694438.391566265, 2570948.686746988], [694438.391566265, 2570958.686746988], [694438.391566265, 2570968.686746988], [694438.391566265, 2570978.686746988], [694438.391566265, 2570988.686746988], [694438.391566265, 2570998.686746988], [694448.391566265, 2571008.686746988], [694448.391566265, 2571008.686746988], [694458.391566265, 2571018.686746988], [694458.391566265, 2571018.686746988], [694468.391566265, 2571028.686746988], [694478.391566265, 2571028.686746988], [694488.391566265, 2571028.686746988], [694488.391566265, 2571028.686746988], [694498.391566265, 2571038.686746988], [694498.391566265, 2571038.686746988], [694508.391566265, 2571048.686746988], [694518.391566265, 2571048.686746988], [694528.391566265, 2571048.686746988], [694538.391566265, 2571048.686746988], [694548.391566265, 2571048.686746988], [694558.391566265, 2571048.686746988], [694568.391566265, 2571048.686746988], [694578.391566265, 2571048.686746988], [694588.391566265, 2571048.686746988], [694598.391566265, 2571048.686746988], [694608.391566265, 2571048.686746988], [694618.391566265, 2571048.686746988], [694628.391566265, 2571048.686746988], [694638.391566265, 2571048.686746988], [694648.391566265, 2571048.686746988], [694658.391566265, 2571048.686746988], [694668.391566265, 2571048.686746988], [694678.391566265, 2571048.686746988], [694688.391566265, 2571048.686746988], [694698.391566265, 2571048.686746988], [694708.391566265, 2571048.686746988], [694718.391566265, 2571048.686746988], [694728.391566265, 2571048.686746988], [694738.391566265, 2571048.686746988], [694748.391566265, 2571048.686746988], [694758.391566265, 2571048.686746988], [694768.391566265, 2571048.686746988], [694778.391566265, 2571048.686746988], [694788.391566265, 2571048.686746988], [694798.391566265, 2571048.686746988], [694798.391566265, 2571048.686746988], [694808.391566265, 2571058.686746988], [694808.391566265, 2571058.686746988], [694818.391566265, 2571068.686746988], [694818.391566265, 2571068.686746988], [694828.391566265, 2571078.686746988], [694828.391566265, 2571078.686746988], [694838.391566265, 2571088.686746988], [694838.391566265, 2571088.686746988], [694848.391566265, 2571098.686746988], [694858.391566265, 2571098.686746988], [694868.391566265, 2571088.686746988], [694868.391566265, 2571078.686746988], [694868.391566265, 2571068.686746988], [694868.391566265, 2571058.686746988], [694868.391566265, 2571048.686746988], [694868.391566265, 2571048.686746988], [694878.391566265, 2571048.686746988], [694888.391566265, 2571048.686746988], [694898.391566265, 2571048.686746988], [694908.391566265, 2571048.686746988], [694918.391566265, 2571048.686746988], [694928.391566265, 2571048.686746988], [694938.391566265, 2571048.686746988], [694948.391566265, 2571048.686746988], [694958.391566265, 2571048.686746988], [694968.391566265, 2571048.686746988], [694978.391566265, 2571048.686746988], [694988.391566265, 2571048.686746988], [694998.391566265, 2571048.686746988], [695008.391566265, 2571048.686746988], [695018.391566265, 2571038.686746988], [695018.391566265, 2571038.686746988], [695028.391566265, 2571038.686746988], [695038.391566265, 2571038.686746988], [695048.391566265, 2571038.686746988], [695058.391566265, 2571038.686746988], [695068.391566265, 2571038.686746988], [695078.391566265, 2571038.686746988], [695088.391566265, 2571028.686746988], [695088.391566265, 2571028.686746988], [695098.391566265, 2571028.686746988], [695108.391566265, 2571018.686746988], [695108.391566265, 2571018.686746988], [695118.391566265, 2571018.686746988], [695128.391566265, 2571018.686746988], [695138.391566265, 2571018.686746988], [695148.391566265, 2571018.686746988], [695158.391566265, 2571018.686746988], [695168.391566265, 2571008.686746988], [695168.391566265, 2571008.686746988], [695178.391566265, 2571008.686746988], [695188.391566265, 2571008.686746988], [695198.391566265, 2571008.686746988], [695208.391566265, 2571008.686746988], [695208.391566265, 2571008.686746988], [695218.391566265, 2571018.686746988], [695228.391566265, 2571018.686746988], [695238.391566265, 2571018.686746988], [695248.391566265, 2571018.686746988], [695248.391566265, 2571018.686746988], [695248.391566265, 2571028.686746988], [695258.391566265, 2571038.686746988], [695258.391566265, 2571038.686746988], [695268.391566265, 2571048.686746988], [695268.391566265, 2571048.686746988], [695278.391566265, 2571058.686746988], [695288.391566265, 2571048.686746988], [695288.391566265, 2571048.686746988], [695298.391566265, 2571048.686746988], [695308.391566265, 2571048.686746988], [695318.391566265, 2571048.686746988], [695328.391566265, 2571048.686746988], [695338.391566265, 2571048.686746988], [695348.391566265, 2571048.686746988], [695358.391566265, 2571048.686746988], [695368.391566265, 2571048.686746988], [695378.391566265, 2571048.686746988], [695388.391566265, 2571048.686746988], [695388.391566265, 2571048.686746988], [695388.391566265, 2571058.686746988], [695388.391566265, 2571068.686746988], [695388.391566265, 2571078.686746988], [695388.391566265, 2571088.686746988], [695398.391566265, 2571098.686746988], [695408.391566265, 2571098.686746988], [695418.391566265, 2571098.686746988], [695428.391566265, 2571098.686746988], [695438.391566265, 2571098.686746988], [695448.391566265, 2571098.686746988], [695458.391566265, 2571098.686746988], [695458.391566265, 2571098.686746988]]}}, {"type": "Feature", "properties": {"level": 0.5, "label": "30 min"}, "geometry": {"type": "LineString", "coordinates": [[694405.5365399013, 2570751.541773352], [694405.4617350892, 2570748.686746988], [694408.4884179569, 2570738.686746988], [694413.6295798401, 2570728.686746988], [694416.4100090077, 2570718.686746988], [694418.5266346856, 2570708.6867469875], [694428.3915662649, 2570700.6539452407], [694438.391566265, 2570693.9697154397], [694448.3915662649, 2570691.6626580674], [694508.391566265, 2570691.662655407], [694518.391566265, 2570690.604229658], [694522.1238940688, 2570688.6867469884], [694528.391566265, 2570685.730139657], [694542.7948635971, 2570678.686746988], [694558.391566265, 2570670.888395654], [694568.391566265, 2570666.662646466], [694578.3915662649, 2570666.662646466], [694588.391566265, 2570666.07088348], [694598.3915662651, 2570660.1141484613], [694608.391566265, 2570650.1141484617], [694610.0804978454, 2570648.686746988], [694618.391566265, 2570641.9924270436], [694623.2664239579, 2570638.686746988], [694628.391566265, 2570635.8616854465], [694637.1126468655, 2570628.686746988], [694648.3915662649, 2570621.357854044], [694652.0099630705, 2570618.686746988], [694658.391566265, 2570615.3104174053], [694668.3915662651, 2570609.056327603], [694670.1224945537, 2570608.6867469884], [694678.3915662649, 2570607.5803033886], [694688.391566265, 2570606.118054146], [694698.391566265, 2570604.35657213], [694708.391566265, 2570598.686746988], [694708.391566265, 2570568.686746988], [694708.391566265, 2570568.686746988], [694728.391566265, 2570568.686746988], [694728.391566265, 2570568.686746988], [694738.391566265, 2570578.686746988], [694758.391566265, 2570558.686746988], [694758.391566265, 2570558.686746988], [694768.391566265, 2570558.686746988], [694808.391566265, 2570518.686746988], [694808.391566265, 2570508.686746988], [694808.391566265, 2570508.686746988], [694838.391566265, 2570478.686746988], [694838.391566265, 2570478.686746988], [694840.984681469, 2570468.686746988], [694841.5363994036, 2570458.6867469884], [694842.5570880135, 2570448.686746988], [694848.391566265, 2570445.0178680983]]}}, {"type": "Feature", "properties": {"level": 0.5, "label": "30 min"}, "geometry": {"type": "LineString", "coordinates": [[694968.391566265, 2570318.686746988], [694968.391566265, 2570328.686746988], [694968.391566265, 2570328.686746988], [694948.391566265, 2570348.686746988], [694958.391566265, 2570358.686746988], [694958.391566265, 2570358.686746988], [694968.391566265, 2570364.4349380485], [694978.391566265, 2570374.838711068], [694988.391566265, 2570385.160292711], [694992.0162042571, 2570388.686746988], [694998.3915662651, 2570393.2735679224], [695008.3915662651, 2570393.2735679224], [695018.391566265, 2570392.540045854], [695022.7948914862, 2570388.686746988], [695042.7948914862, 2570378.686746988], [695048.391566265, 2570375.070287707], [695053.3310198092, 2570368.6867469884], [695058.391566265, 2570358.565654076], [695064.2360320552, 2570348.686746988], [695068.391566265, 2570343.2225756356], [695078.391566265, 2570341.662642847], [695108.391566265, 2570341.662642847], [695118.391566265, 2570340.375678568], [695119.8189677384, 2570338.6867469884], [695208.391566265, 2570250.1141484613], [695210.0804978453, 2570248.686746988], [695218.391566265, 2570238.686746988], [695218.391566265, 2570178.686746988], [695208.391566265, 2570168.686746988], [695168.391566265, 2570168.686746988], [695168.391566265, 2570168.686746988], [695168.391566265, 2570128.686746988], [695148.391566265, 2570108.686746988], [695118.391566265, 2570108.686746988], [695108.391566265, 2570118.686746988], [695108.391566265, 2570128.686746988], [695108.391566265, 2570128.686746988], [695088.391566265, 2570148.686746988], [695088.391566265, 2570158.686746988], [695088.391566265, 2570158.686746988], [695068.391566265, 2570178.686746988], [695068.391566265, 2570188.686746988], [695068.391566265, 2570188.686746988], [695038.391566265, 2570218.686746988], [695038.391566265, 2570228.686746988], [695038.391566265, 2570228.686746988], [695018.391566265, 2570248.686746988], [695018.391566265, 2570258.686746988], [695018.391566265, 2570258.686746988], [694998.391566265, 2570278.686746988], [694998.391566265, 2570288.686746988], [694998.391566265, 2570288.686746988], [694988.391566265, 2570288.686746988], [694988.391566265, 2570288.686746988]]}}, {"type": "Feature", "properties": {"level": 0.5, "label": "30 min"}, "geometry": {"type": "LineString", "coordinates": [[695098.391566265, 2570038.686746988], [695118.391566265, 2570038.686746988], [695128.391566265, 2570028.686746988], [695128.391566265, 2570028.686746988], [695188.391566265, 2570028.686746988], [695188.391566265, 2570028.686746988], [695198.391566265, 2570038.686746988], [695228.391566265, 2570038.686746988], [695228.391566265, 2570038.686746988], [695238.391566265, 2570048.686746988], [695248.391566265, 2570048.686746988], [695248.391566265, 2570048.686746988], [695298.391566265, 2570098.686746988], [695368.391566265, 2570098.686746988], [695418.391566265, 2570048.686746988], [695418.391566265, 2570048.686746988], [695558.391566265, 2570048.686746988], [695568.3915662649, 2570043.4832907557], [695569.8189677384, 2570038.686746988], [695608.391566265, 2570000.1141484613], [695610.0804978453, 2569998.686746988], [695618.391566265, 2569988.686746988], [695618.391566265, 2569898.686746988], [695618.391566265, 2569898.686746988], [695668.391566265, 2569848.686746988], [695668.391566265, 2569848.686746988], [695808.391566265, 2569848.686746988], [695818.391566265, 2569838.686746988], [695818.391566265, 2569798.686746988], [695818.391566265, 2569798.686746988], [695888.391566265, 2569798.686746988], [695888.391566265, 2569798.686746988], [695888.391566265, 2569838.686746988], [695898.391566265, 2569848.686746988], [696038.391566265, 2569848.686746988], [696038.391566265, 2569848.686746988], [696038.391566265, 2569888.686746988], [696048.391566265, 2569898.686746988], [696088.391566265, 2569898.686746988], [696088.391566265, 2569898.686746988], [696088.391566265, 2569938.686746988], [696098.391566265, 2569948.686746988], [696138.391566265, 2569948.686746988], [696138.391566265, 2569948.686746988], [696138.391566265, 2570058.686746988], [696138.391566265, 2570058.686746988]]}}, {"type": "Feature", "properties": {"level": 1.0, "label": "1 h"}, "geometry": {"type": "LineString", "coordinates": [[693817.5434669743, 2569848.686746988], [693828.391566265, 2569837.8624541005], [693838.391566265, 2569837.32601197], [693847.0903471614, 2569828.686746988], [693848.391566265, 2569827.874095173], [693858.391566265, 2569827.8424341762], [693868.391566265, 2569824.9868324115], [693874.7980613126, 2569818.686746988], [693878.391566265, 2569817.8611135385], [693888.391566265, 2569817.270314823], [693897.0378968604, 2569808.686746988], [693898.391566265, 2569807.8729934297], [693908.391566265, 2569807.8273856947], [693918.391566265, 2569804.370113837], [693924.2029484268, 2569798.686746988], [693928.391566265, 2569797.8597144005], [693938.391566265, 2569797.2073868224], [693946.9785841734, 2569788.686746988], [693948.391566265, 2569787.8718427485], [693958.391566265, 2569787.811152778], [693968.3915662651, 2569783.491929502], [693973.3302283331, 2569778.686746988], [693978.391566265, 2569777.8582525793], [693988.391566265, 2569777.135722723], [693996.9109702574, 2569768.686746988], [693998.391566265, 2569767.870641099], [694008.391566265, 2569767.7935894546], [694018.391566265, 2569762.0981371384], [694021.9265452275, 2569758.686746988], [694028.391566265, 2569757.8567235935], [694038.391566265, 2569757.0533682737], [694046.8331780356, 2569748.686746988], [694048.391566265, 2569747.8693828154], [694058.391566265, 2569747.774526449], [694069.2955192066, 2569738.6867469875], [694088.3915662651, 2569736.957737065], [694096.74272299, 2569728.686746988], [694098.391566265, 2569727.868064691], [694108.391566265, 2569727.7537610065], [694118.391566265, 2569718.364832652], [694128.3915662651, 2569717.8534456817], [694138.391566265, 2569716.8453379157], [694146.6362402443, 2569708.686746988], [694148.391566265, 2569707.8666827297], [694158.391566265, 2569707.7310552215], [694168.391566265, 2569697.9667934803], [694178.391566265, 2569697.851685558], [694188.391566265, 2569696.711337932], [694196.5090567755, 2569688.686746988], [694198.391566265, 2569687.8652319796], [694208.391566265, 2569687.70612408], [694218.391566265, 2569677.8785052947], [694228.391566265, 2569677.8489151374], [694238.391566265, 2569676.5488457787], [694246.3544837361, 2569668.686746988], [694248.391566265, 2569667.8621705296], [694258.391566265, 2569667.6786238477], [694268.391566265, 2569657.8757638857], [694278.3915662649, 2569657.845342643], [694288.391566265, 2569656.3476946554], [694296.1626073034, 2569648.686746988], [694298.391566265, 2569647.8589261584], [694308.391566265, 2569647.648135216], [694317.4113149978, 2569638.686746988], [694318.391566265, 2569637.8732856135], [694328.391566265, 2569637.842335089], [694338.391566265, 2569636.0922275186], [694345.9180725196, 2569628.686746988], [694348.391566265, 2569627.856918279], [694358.391566265, 2569627.6141434386], [694367.380464957, 2569618.686746988], [694368.391566265, 2569617.871871652], [694378.391566265, 2569617.8400699263], [694388.391566265, 2569615.757008224], [694395.595749549, 2569608.686746988], [694398.391566265, 2569607.8550290735], [694408.391566265, 2569607.5760083096], [694417.3458270363, 2569598.686746988], [694418.391566265, 2569597.8703783765], [694428.391566265, 2569597.8376773153], [694438.391566265, 2569595.2977778967], [694445.1515042674, 2569588.686746988], [694448.391566265, 2569587.8530317657], [694458.391566265, 2569587.53292226], [694467.3066571761, 2569578.686746988], [694468.391566265, 2569577.8687986843], [694478.391566265, 2569577.8351459443], [694488.391566265, 2569574.63011666], [694494.5000285034, 2569568.686746988], [694498.391566265, 2569567.8509172737], [694508.391566265, 2569567.4838547083], [694517.2620041583, 2569558.686746988], [694518.391566265, 2569557.8671246297], [694528.391566265, 2569557.832463148], [694538.391566265, 2569553.570451571], [694543.4521990856, 2569548.686746988], [694548.391566265, 2569547.8486759914], [694558.391566265, 2569547.427467155], [694567.2106300016, 2569538.686746988], [694568.391566265, 2569537.8653479773], [694578.391566265, 2569537.829615424], [694588.391566265, 2569531.630098325], [694591.488168502, 2569528.686746988], [694598.391566265, 2569527.846293177], [694608.391566265, 2569527.3619920057], [694617.1508942577, 2569518.686746988], [694618.391566265, 2569517.8634587373], [694628.3915662649, 2569517.826586809], [694638.391566265, 2569508.543122678], [694648.391566265, 2569507.843756995], [694658.391566265, 2569507.2850338123], [694667.0805733961, 2569498.686746988], [694668.391566265, 2569497.8614456104], [694678.391566265, 2569497.8233592436], [694688.391566265, 2569488.0040473915], [694698.391566265, 2569487.841051864], [694708.391566265, 2569487.193285117], [694716.996581197, 2569478.686746988], [694718.391566265, 2569477.859296535], [694728.391566265, 2569477.8199130204], [694738.391566265, 2569467.8863435276], [694748.391566265, 2569467.838160051], [694758.391566265, 2569467.082029694], [694766.8945048718, 2569458.686746988], [694768.391566265, 2569457.8569981726], [694778.391566265, 2569457.8162248353], [694788.3915662651, 2569447.88498291], [694798.391566265, 2569447.8350621276], [694808.391566265, 2569446.944304222], [694816.7677905816, 2569438.686746988], [694818.391566265, 2569437.8545317715], [694828.391566265, 2569437.812269509], [694838.391566265, 2569427.8835232332], [694848.391566265, 2569427.831734633], [694858.3915662649, 2569426.7693880135], [694866.6062997588, 2569418.686746988], [694868.391566265, 2569417.851879651], [694878.391566265, 2569417.808014225], [694888.391566265, 2569407.881952961], [694898.391566265, 2569407.8281517047], [694908.391566265, 2569406.53986724], [694916.3934405269, 2569398.686746988], [694918.391566265, 2569397.8490197123], [694928.391566265, 2569397.8034250056], [694938.391566265, 2569387.880258738], [694948.391566265, 2569387.824282405], [694958.391566265, 2569386.2254382046], [694966.1000630648, 2569378.686746988], [694968.391566265, 2569377.8459271956], [694978.391566265, 2569377.7984606028], [694988.391566265, 2569367.8784276564], [694998.391566265, 2569367.8200906417], [695008.391566265, 2569365.7682959307], [695015.669828357, 2569358.686746988], [695018.391566265, 2569357.8425721605], [695028.391566265, 2569357.793073783], [695038.391566265, 2569347.8764382475], [695048.391566265, 2569347.8155350857], [695058.391566265, 2569345.042760983], [695064.9778475533, 2569338.686746988], [695068.391566265, 2569337.838919354], [695078.391566265, 2569337.7872074614], [695088.391566265, 2569327.874270854], [695098.391566265, 2569327.81056772], [695108.391566265, 2569323.714227747], [695113.6808115761, 2569318.686746988], [695118.391566265, 2569317.8349280637], [695128.391566265, 2569317.7662449777], [695138.391566265, 2569307.871901216], [695148.391566265, 2569307.805125414], [695158.391566265, 2569300.4964979813], [695160.3687362074, 2569298.686746988], [695168.391566265, 2569297.830548523], [695178.391566265, 2569297.7247275775], [695188.3915662649, 2569287.869299223], [695198.391566265, 2569287.796522492], [695208.391566265, 2569278.0851186207], [695228.3915662651, 2569277.675231], [695238.391566265, 2569267.86642855], [695248.391566265, 2569267.786259985], [695258.391566265, 2569257.9078294155], [695268.391566265, 2569257.820373245], [695278.3915662649, 2569257.6152110565], [695288.391566265, 2569247.863246198], [695298.391566265, 2569247.7779978714], [695308.391566265, 2569237.9068891485], [695318.3915662651, 2569237.814419047], [695328.391566265, 2569237.540910954], [695337.372970944, 2569228.686746988], [695338.391566265, 2569227.8596979887], [695348.3915662651, 2569227.7692911224], [695358.391566265, 2569217.905839342], [695368.391566265, 2569217.8077427447], [695378.391566265, 2569217.446550393], [695387.2945255374, 2569208.686746988], [695388.3915662651, 2569207.855716518], [695398.391566265, 2569207.7594873128], [695408.391566265, 2569197.9046606333], [695418.391566265, 2569197.800208841], [695428.391566265, 2569197.3227280797], [695437.1911267119, 2569188.686746988], [695438.391566265, 2569187.851218354], [695448.391566265, 2569187.7483664067], [695458.3915662649, 2569177.9033271666], [695468.391566265, 2569177.7916400884], [695478.391566265, 2569177.153101803], [695487.0486174574, 2569168.686746988], [695488.3915662651, 2569167.8460947652], [695498.391566265, 2569167.735643136], [695508.391566265, 2569157.901805816], [695518.391566265, 2569157.781806933], [695528.391566265, 2569156.9064837834], [695536.8396330945, 2569148.686746988], [695538.391566265, 2569147.840209976], [695548.391566265, 2569147.7209436093], [695558.3915662649, 2569137.900055075], [695568.391566265, 2569137.7704086904], [695578.391566265, 2569136.5150708226], [695586.5034970723, 2569128.686746988], [695588.391566265, 2569127.8333723824], [695598.391566265, 2569127.7037702748], [695608.391566265, 2569117.8980180994], [695618.391566265, 2569117.7570377607], [695628.391566265, 2569115.7983604595], [695635.8734582923, 2569108.686746988], [695638.391566265, 2569107.8253341652], [695648.391566265, 2569107.683444046], [695658.391566265, 2569097.8956177984], [695668.391566265, 2569097.741135344], [695678.391566265, 2569094.062465772], [695684.2646007149, 2569088.686746988], [695688.391566265, 2569087.815750391], [695698.391566265, 2569087.658998308], [695708.391566265, 2569077.892749071], [695718.391566265, 2569077.721906193], [695728.391566265, 2569068.336275397], [695738.391566265, 2569067.804126788], [695748.391566265, 2569067.629048176], [695758.391566265, 2569057.889263501], [695768.3915662651, 2569057.6981833866], [695778.391566265, 2569047.9774695737], [695798.391566265, 2569047.587463312], [695808.391566265, 2569037.88492517], [695818.391566265, 2569037.66818618], [695828.391566265, 2569027.9839745536], [695848.391566265, 2569027.5257511544], [695858.391566265, 2569017.8793882392], [695868.391566265, 2569017.629050244], [695878.391566265, 2569007.992320833], [695898.391566265, 2569007.445033583], [695908.391566265, 2568997.872074631], [695918.391566265, 2568997.5758283096], [695928.391566265, 2568988.0034174956], [695948.391566265, 2568987.3434393555], [695958.391566265, 2568977.861964337], [695968.391566265, 2568977.4992673504], [695978.391566265, 2568968.018899486], [695988.391566265, 2568967.666692168], [695998.391566265, 2568967.187284476], [696008.391566265, 2568957.847078795], [696018.391566265, 2568957.379698871], [696028.3915662649, 2568948.041981943], [696038.391566265, 2568947.590651662], [696048.391566265, 2568946.9164760127], [696057.283927294, 2568938.686746988], [696058.391566265, 2568937.8229844472], [696068.391566265, 2568937.166724922], [696078.391566265, 2568928.080104128], [696088.391566265, 2568927.451166873], [696098.3915662649, 2568926.3315262115], [696107.0565466842, 2568918.686746988], [696108.391566265, 2568917.777305082], [696118.391566265, 2568916.6807751544], [696127.5810878159, 2568908.686746988], [696128.3915662651, 2568908.1550772926], [696138.391566265, 2568907.111912555], [696148.3915662651, 2568903.603609558], [696155.7927682005, 2568898.686746988], [696158.3915662649, 2568897.5744566666], [696168.391566265, 2568891.329484797], [696178.3915662651, 2568889.6445209603], [696218.391566265, 2568889.6445209603], [696222.0131173139, 2568888.6867469884], [696228.391566265, 2568885.8095355453], [696238.391566265, 2568881.510237164], [696252.8497237737, 2568878.6867469875], [696258.391566265, 2568876.177244149], [696268.391566265, 2568871.510237164], [696282.8497237737, 2568868.6867469875], [696288.391566265, 2568866.177244149], [696298.391566265, 2568861.510237164], [696312.8497237735, 2568858.6867469875], [696318.391566265, 2568856.177244149], [696328.391566265, 2568851.510237164], [696342.8497237737, 2568848.6867469875], [696348.391566265, 2568846.177244149], [696358.391566265, 2568841.510237164], [696368.3915662651, 2568839.7817641324], [696369.4865834096, 2568838.686746988], [696379.8189983964, 2568828.686746988], [696458.391566265, 2568750.1141791195], [696468.391566265, 2568741.662642847], [696508.391566265, 2568741.662642847], [696518.391566265, 2568738.686746988], [696518.391566265, 2568728.686746988], [696508.391566265, 2568718.686746988], [696498.391566265, 2568718.686746988], [696498.391566265, 2568718.686746988], [696498.391566265, 2568678.686746988]]}}]}