{"type": "FeatureCollection", "crs": {"type": "name", "properties": {"name": "urn:ogc:def:crs:EPSG::32640"}}, "features": [{"type": "Feature", "properties": {"hours": 0.25, "label": "15 min"}, "geometry": {"type": "LineString", "coordinates": [[693868.391566265, 2570928.686746988], [693868.391566265, 2570918.686746988], [693868.391566265, 2570908.686746988], [693868.391566265, 2570898.686746988], [693868.391566265, 2570898.686746988], [693878.391566265, 2570898.686746988], [693888.391566265, 2570898.686746988], [693898.391566265, 2570898.686746988], [693908.391566265, 2570898.686746988], [693918.391566265, 2570898.686746988], [693928.391566265, 2570898.686746988], [693938.391566265, 2570898.686746988], [693948.391566265, 2570898.686746988], [693958.391566265, 2570898.686746988], [693968.391566265, 2570898.686746988], [693978.391566265, 2570898.686746988], [693988.391566265, 2570898.686746988], [693998.391566265, 2570898.686746988], [694008.391566265, 2570898.686746988], [694018.391566265, 2570898.686746988], [694028.391566265, 2570898.686746988], [694038.391566265, 2570898.686746988], [694048.391566265, 2570898.686746988], [694058.391566265, 2570898.686746988], [694068.391566265, 2570898.686746988], [694078.391566265, 2570898.686746988], [694088.391566265, 2570898.686746988], [694098.391566265, 2570898.686746988], [694108.391566265, 2570898.686746988], [694118.391566265, 2570898.686746988], [694128.391566265, 2570898.686746988], [694138.391566265, 2570898.686746988], [694138.391566265, 2570898.686746988], [694138.391566265, 2570908.686746988], [694138.391566265, 2570918.686746988], [694138.391566265, 2570928.686746988], [694138.391566265, 2570938.686746988], [694148.391566265, 2570948.686746988], [694158.391566265, 2570948.686746988], [694168.391566265, 2570948.686746988], [694178.391566265, 2570948.686746988], [694188.391566265, 2570948.686746988], [694198.391566265, 2570948.686746988], [694208.391566265, 2570948.686746988], [694218.391566265, 2570948.686746988], [694228.391566265, 2570938.686746988], [694228.391566265, 2570938.686746988], [694238.391566265, 2570928.686746988], [694238.391566265, 2570928.686746988], [694248.391566265, 2570918.686746988], [694248.391566265, 2570918.686746988], [694258.391566265, 2570908.686746988], [694258.391566265, 2570908.686746988], [694268.391566265, 2570898.686746988], [694268.391566265, 2570898.686746988], [694278.391566265, 2570898.686746988], [694288.391566265, 2570898.686746988], [694298.391566265, 2570898.686746988], [694298.391566265, 2570898.686746988], [694308.391566265, 2570908.686746988], [694308.391566265, 2570908.686746988], [694318.391566265, 2570918.686746988], [694318.391566265, 2570918.686746988], [694328.391566265, 2570928.686746988], [694338.391566265, 2570928.686746988], [694348.391566265, 2570928.686746988], [694358.391566265, 2570918.686746988], [694358.391566265, 2570918.686746988], [694368.391566265, 2570908.686746988], [694368.391566265, 2570908.686746988], [694378.391566265, 2570898.686746988], [694378.391566265, 2570888.686746988], [694378.391566265, 2570878.686746988], [694378.391566265, 2570868.686746988], [694378.391566265, 2570858.686746988], [694378.391566265, 2570858.686746988], [694388.391566265, 2570848.686746988], [694388.391566265, 2570848.686746988], [694398.391566265, 2570848.686746988], [694408.391566265, 2570848.686746988], [694408.391566265, 2570848.686746988], [694418.391566265, 2570858.686746988], [694418.391566265, 2570858.686746988], [694418.391566265, 2570868.686746988], [694428.391566265, 2570878.686746988], [694428.391566265, 2570878.686746988], [694428.391566265, 2570888.686746988], [694428.391566265, 2570898.686746988], [694428.391566265, 2570908.686746988], [694428.391566265, 2570918.686746988], [694438.391566265, 2570928.686746988], [694438.391566265, 2570928.686746988], [694438.391566265, 2570938.686746988], [694438.391566265, 2570948.686746988], [694438.391566265, 2570958.686746988], [694438.391566265, 2570968.686746988], [694438.391566265, 2570978.686746988], [694438.391566265, 2570988.686746988], [694438.391566265, 2570998.686746988], [694448.391566265, 2571008.686746988], [694448.391566265, 2571008.686746988], [694458.391566265, 2571018.686746988], [694458.391566265, 2571018.686746988], [694468.391566265, 2571028.686746988], [694478.391566265, 2571028.686746988], [694488.391566265, 2571028.686746988], [694488.391566265, 2571028.686746988], [694498.391566265, 2571038.686746988], [694498.391566265, 2571038.686746988], [694508.391566265, 2571048.686746988], [694518.391566265, 2571048.686746988], [694528.391566265, 2571048.686746988], [694538.391566265, 2571048.686746988], [694548.391566265, 2571048.686746988], [694558.391566265, 2571048.686746988], [694568.391566265, 2571048.686746988], [694578.391566265, 2571048.686746988], [694588.391566265, 2571048.686746988], [694598.391566265, 2571048.686746988], [694608.391566265, 2571048.686746988], [694618.391566265, 2571048.686746988], [694628.391566265, 2571048.686746988], [694638.391566265, 2571048.686746988], [694648.391566265, 2571048.686746988], [694658.391566265, 2571048.686746988], [694668.391566265, 2571048.686746988], [694678.391566265, 2571048.686746988], [694688.391566265, 2571048.686746988], [694698.391566265, 2571048.686746988], [694708.391566265, 2571048.686746988], [694718.391566265, 2571048.686746988], [694728.391566265, 2571048.686746988], [694738.391566265, 2571048.686746988], [694748.391566265, 2571048.686746988], [694758.391566265, 2571048.686746988], [694768.391566265, 2571048.686746988], [694778.391566265, 2571048.686746988], [694788.391566265, 2571048.686746988], [694798.391566265, 2571048.686746988], [694798.391566265, 2571048.686746988], [694808.391566265, 2571058.686746988], [694808.391566265, 2571058.686746988], [694818.391566265, 2571068.686746988], [694818.391566265, 2571068.686746988], [694828.391566265, 2571078.686746988], [694828.391566265, 2571078.686746988], [694838.391566265, 2571088.686746988], [694838.391566265, 2571088.686746988], [694848.391566265, 2571098.686746988], [694858.391566265, 2571098.686746988], [694868.391566265, 2571088.686746988], [694868.391566265, 2571078.686746988], [694868.391566265, 2571068.686746988], [694868.391566265, 2571058.686746988], [694868.391566265, 2571048.686746988], [694868.391566265, 2571048.686746988], [694878.391566265, 2571048.686746988], [694888.391566265, 2571048.686746988], [694898.391566265, 2571048.686746988], [694908.391566265, 2571048.686746988], [694918.391566265, 2571048.686746988], [694928.391566265, 2571048.686746988], [694938.391566265, 2571048.686746988], [694948.391566265, 2571048.686746988], [694958.391566265, 2571048.686746988], [694968.391566265, 2571048.686746988], [694978.391566265, 2571048.686746988], [694988.391566265, 2571048.686746988], [694998.391566265, 2571048.686746988], [695008.391566265, 2571048.686746988], [695018.391566265, 2571038.686746988], [695018.391566265, 2571038.686746988], [695028.391566265, 2571038.686746988], [695038.391566265, 2571038.686746988], [695048.391566265, 2571038.686746988], [695058.391566265, 2571038.686746988], [695068.391566265, 2571038.686746988], [695078.391566265, 2571038.686746988], [695088.391566265, 2571028.686746988], [695088.391566265, 2571028.686746988], [695098.391566265, 2571028.686746988], [695108.391566265, 2571018.686746988], [695108.391566265, 2571018.686746988], [695118.391566265, 2571018.686746988], [695128.391566265, 2571018.686746988], [695138.391566265, 2571018.686746988], [695148.391566265, 2571018.686746988], [695158.391566265, 2571018.686746988], [695168.391566265, 2571008.686746988], [695168.391566265, 2571008.686746988], [695178.391566265, 2571008.686746988], [695188.391566265, 2571008.686746988], [695198.391566265, 2571008.686746988], [695208.391566265, 2571008.686746988], [695208.391566265, 2571008.686746988], [695218.391566265, 2571018.686746988], [695228.391566265, 2571018.686746988], [695238.391566265, 2571018.686746988], [695248.391566265, 2571018.686746988], [695248.391566265, 2571018.686746988], [695248.391566265, 2571028.686746988], [695258.391566265, 2571038.686746988], [695258.391566265, 2571038.686746988], [695268.391566265, 2571048.686746988], [695268.391566265, 2571048.686746988], [695278.391566265, 2571058.686746988], [695288.391566265, 2571048.686746988], [695288.391566265, 2571048.686746988], [695298.391566265, 2571048.686746988], [695308.391566265, 2571048.686746988], [695318.391566265, 2571048.686746988], [695328.391566265, 2571048.686746988], [695338.391566265, 2571048.686746988], [695348.391566265, 2571048.686746988], [695358.391566265, 2571048.686746988], [695368.391566265, 2571048.686746988], [695378.391566265, 2571048.686746988], [695388.391566265, 2571048.686746988], [695388.391566265, 2571048.686746988], [695388.391566265, 2571058.686746988], [695388.391566265, 2571068.686746988], [695388.391566265, 2571078.686746988], [695388.391566265, 2571088.686746988], [695398.391566265, 2571098.686746988], [695408.391566265, 2571098.686746988], [695418.391566265, 2571098.686746988], [695428.391566265, 2571098.686746988], [695438.391566265, 2571098.686746988], [695448.391566265, 2571098.686746988], [695458.391566265, 2571098.686746988], [695458.391566265, 2571098.686746988]]}}, {"type": "Feature", "properties": {"hours": 0.5, "label": "30 min"}, "geometry": {"type": "LineString", "coordinates": [[694405.5365399013, 2570751.541773352], [694405.4617350892, 2570748.686746988], [694408.4884179569, 2570738.686746988], [694413.6295798401, 2570728.686746988], [694416.4100090077, 2570718.686746988], [694418.5266346856, 2570708.6867469875], [694428.3915662649, 2570700.6539452407], [694438.391566265, 2570693.9697154397], [694448.3915662649, 2570691.6626580674], [694508.391566265, 2570691.662655407], [694518.391566265, 2570690.604229658], [694522.1238940688, 2570688.6867469884], [694528.391566265, 2570685.730139657], [694542.7948635971, 2570678.686746988], [694558.391566265, 2570670.888395654], [694568.391566265, 2570666.662646466], [694578.3915662649, 2570666.662646466], [694588.391566265, 2570666.07088348], [694598.3915662651, 2570660.1141484613], [694608.391566265, 2570650.1141484617], [694610.0804978454, 2570648.686746988], [694618.391566265, 2570641.9924270436], [694623.2664239579, 2570638.686746988], [694628.391566265, 2570635.8616854465], [694637.1126468655, 2570628.686746988], [694648.3915662649, 2570621.357854044], [694652.0099630705, 2570618.686746988], [694658.391566265, 2570615.3104174053], [694668.3915662651, 2570609.056327603], [694670.1224945537, 2570608.6867469884], [694678.3915662649, 2570607.5803033886], [694688.391566265, 2570606.118054146], [694698.391566265, 2570604.35657213], [694708.391566265, 2570598.686746988], [694708.391566265, 2570568.686746988], [694708.391566265, 2570568.686746988], [694728.391566265, 2570568.686746988], [694728.391566265, 2570568.686746988], [694738.391566265, 2570578.686746988], [694758.391566265, 2570558.686746988], [694758.391566265, 2570558.686746988], [694768.391566265, 2570558.686746988], [694808.391566265, 2570518.686746988], [694808.391566265, 2570508.686746988], [694808.391566265, 2570508.686746988], [694838.391566265, 2570478.686746988], [694838.391566265, 2570478.686746988], [694840.984681469, 2570468.686746988], [694841.5363994036, 2570458.6867469884], [694842.5570880135, 2570448.686746988], [694848.391566265, 2570445.0178680983]]}}, {"type": "Feature", "properties": {"hours": 0.5, "label": "30 min"}, "geometry": {"type": "LineString", "coordinates": [[694968.391566265, 2570318.686746988], [694968.391566265, 2570328.686746988], [694968.391566265, 2570328.686746988], [694948.391566265, 2570348.686746988], [694958.391566265, 2570358.686746988], [694958.391566265, 2570358.686746988], [694968.391566265, 2570364.4349380485], [694978.391566265, 2570374.838711068], [694988.391566265, 2570385.160292711], [694992.0162042571, 2570388.686746988], [694998.3915662651, 2570393.2735679224], [695008.3915662651, 2570393.2735679224], [695018.391566265, 2570392.540045854], [695022.7948914862, 2570388.686746988], [695042.7948914862, 2570378.686746988], [695048.391566265, 2570375.070287707], [695053.3310198092, 2570368.6867469884], [695058.391566265, 2570358.565654076], [695064.2360320552, 2570348.686746988], [695068.391566265, 2570343.2225756356], [695078.391566265, 2570341.662642847], [695108.391566265, 2570341.662642847], [695118.391566265, 2570340.375678568], [695119.8189677384, 2570338.6867469884], [695208.391566265, 2570250.1141484613], [695210.0804978453, 2570248.686746988], [695218.391566265, 2570238.686746988], [695218.391566265, 2570178.686746988], [695208.391566265, 2570168.686746988], [695168.391566265, 2570168.686746988], [695168.391566265, 2570168.686746988], [695168.391566265, 2570128.686746988], [695148.391566265, 2570108.686746988], [695118.391566265, 2570108.686746988], [695108.391566265, 2570118.686746988], [695108.391566265, 2570128.686746988], [695108.391566265, 2570128.686746988], [695088.391566265, 2570148.686746988], [695088.391566265, 2570158.686746988], [695088.391566265, 2570158.686746988], [695068.391566265, 2570178.686746988], [695068.391566265, 2570188.686746988], [695068.391566265, 2570188.686746988], [695038.391566265, 2570218.686746988], [695038.391566265, 2570228.686746988], [695038.391566265, 2570228.686746988], [695018.391566265, 2570248.686746988], [695018.391566265, 2570258.686746988], [695018.391566265, 2570258.686746988], [694998.391566265, 2570278.686746988], [694998.391566265, 2570288.686746988], [694998.391566265, 2570288.686746988], [694988.391566265, 2570288.686746988], [694988.391566265, 2570288.686746988]]}}, {"type": "Feature", "properties": {"hours": 0.5, "label": "30 min"}, "geometry": {"type": "LineString", "coordinates": [[695098.391566265, 2570038.686746988], [695118.391566265, 2570038.686746988], [695128.391566265, 2570028.686746988], [695128.391566265, 2570028.686746988], [695188.391566265, 2570028.686746988], [695188.391566265, 2570028.686746988], [695198.391566265, 2570038.686746988], [695228.391566265, 2570038.686746988], [695228.391566265, 2570038.686746988], [695238.391566265, 2570048.686746988], [695248.391566265, 2570048.686746988], [695248.391566265, 2570048.686746988], [695298.391566265, 2570098.686746988], [695368.391566265, 2570098.686746988], [695418.391566265, 2570048.686746988], [695418.391566265, 2570048.686746988], [695558.391566265, 2570048.686746988], [695568.3915662649, 2570043.4832907557], [695569.8189677384, 2570038.686746988], [695608.391566265, 2570000.1141484613], [695610.0804978453, 2569998.686746988], [695618.391566265, 2569988.686746988], [695618.391566265, 2569898.686746988], [695618.391566265, 2569898.686746988], [695668.391566265, 2569848.686746988], [695668.391566265, 2569848.686746988], [695808.391566265, 2569848.686746988], [695818.391566265, 2569838.686746988], [695818.391566265, 2569798.686746988], [695818.391566265, 2569798.686746988], [695888.391566265, 2569798.686746988], [695888.391566265, 2569798.686746988], [695888.391566265, 2569838.686746988], [695898.391566265, 2569848.686746988], [696038.391566265, 2569848.686746988], [696038.391566265, 2569848.686746988], [696038.391566265, 2569888.686746988], [696048.391566265, 2569898.686746988], [696088.391566265, 2569898.686746988], [696088.391566265, 2569898.686746988], [696088.391566265, 2569938.686746988], [696098.391566265, 2569948.686746988], [696138.391566265, 2569948.686746988], [696138.391566265, 2569948.686746988], [696138.391566265, 2570058.686746988], [696138.391566265, 2570058.686746988]]}}, {"type": "Feature", "properties": {"hours": 1.0, "label": "1 h"}, "geometry": {"type": "LineString", "coordinates": [[693817.5434669743, 2569848.686746988], [693828.391566265, 2569837.8624541005], [693838.391566265, 2569837.32601197], [693847.0903471614, 2569828.686746988], [693848.391566265, 2569827.874095173], [693858.391566265, 2569827.8424341762], [693868.391566265, 2569824.9868324115], [693874.7980613126, 2569818.686746988], [693878.391566265, 2569817.8611135385], [693888.391566265, 2569817.270314823], [693897.0378968604, 2569808.686746988], [693898.391566265, 2569807.8729934297], [693908.391566265, 2569807.8273856947], [693918.391566265, 2569804.370113837], [693924.2029484268, 2569798.686746988], [693928.391566265, 2569797.8597144005], [693938.391566265, 2569797.2073868224], [693946.9785841734, 2569788.686746988], [693948.391566265, 2569787.8718427485], [693958.391566265, 2569787.811152778], [693968.3915662651, 2569783.491929502], [693973.3302283331, 2569778.686746988], [693978.391566265, 2569777.8582525793], [693988.391566265, 2569777.135722723], [693996.9109702574, 2569768.686746988], [693998.391566265, 2569767.870641099], [694008.391566265, 2569767.7935894546], [694018.391566265, 2569762.0981371384], [694021.9265452275, 2569758.686746988], [694028.391566265, 2569757.8567235935], [694038.391566265, 2569757.0533682737], [694046.8331780356, 2569748.686746988], [694048.391566265, 2569747.8693828154], [694058.391566265, 2569747.774526449], [694069.2955192066, 2569738.6867469875], [694088.3915662651, 2569736.957737065], [694096.74272299, 2569728.686746988], [694098.391566265, 2569727.868064691], [694108.391566265, 2569727.7537610065], [694118.391566265, 2569718.364832652], [694128.3915662651, 2569717.8534456817], [694138.391566265, 2569716.8453379157], [694146.6362402443, 2569708.686746988], [694148.391566265, 2569707.8666827297], [694158.391566265, 2569707.7310552215], [694168.391566265, 2569697.9667934803], [694178.391566265, 2569697.851685558], [694188.391566265, 2569696.711337932], [694196.5090567755, 2569688.686746988], [694198.391566265, 2569687.8652319796], [694208.391566265, 2569687.70612408], [694218.391566265, 2569677.8785052947], [694228.391566265, 2569677.8489151374], [694238.391566265, 2569676.5488457787], [694246.3544837361, 2569668.686746988], [694248.391566265, 2569667.8621705296], [694258.391566265, 2569667.6786238477], [694268.391566265, 2569657.8757638857], [694278.3915662649, 2569657.845342643], [694288.391566265, 2569656.3476946554], [694296.1626073034, 2569648.686746988], [694298.391566265, 2569647.8589261584], [694308.391566265, 2569647.648135216], [694317.4113149978, 2569638.686746988], [694318.391566265, 2569637.8732856135], [694328.391566265, 2569637.842335089], [694338.391566265, 2569636.0922275186], [694345.9180725196, 2569628.686746988], [694348.391566265, 2569627.856918279], [694358.391566265, 2569627.6141434386], [694367.380464957, 2569618.686746988], [694368.391566265, 2569617.871871652], [694378.391566265, 2569617.8400699263], [694388.391566265, 2569615.757008224], [694395.595749549, 2569608.686746988], [694398.391566265, 2569607.8550290735], [694408.391566265, 2569607.5760083096], [694417.3458270363, 2569598.686746988], [694418.391566265, 2569597.8703783765], [694428.391566265, 2569597.8376773153], [694438.391566265, 2569595.2977778967], [694445.1515042674, 2569588.686746988], [694448.391566265, 2569587.8530317657], [694458.391566265, 2569587.53292226], [694467.3066571761, 2569578.686746988], [694468.391566265, 2569577.8687986843], [694478.391566265, 2569577.8351459443], [694488.391566265, 2569574.63011666], [694494.5000285034, 2569568.686746988], [694498.391566265, 2569567.8509172737], [694508.391566265, 2569567.4838547083], [694517.2620041583, 2569558.686746988], [694518.391566265, 2569557.8671246297], [694528.391566265, 2569557.832463148], [694538.391566265, 2569553.570451571], [694543.4521990856, 2569548.686746988], [694548.391566265, 2569547.8486759914], [694558.391566265, 2569547.427467155], [694567.2106300016, 2569538.686746988], [694568.391566265, 2569537.8653479773], [694578.391566265, 2569537.829615424], [694588.391566265, 2569531.630098325], [694591.488168502, 2569528.686746988], [694598.391566265, 2569527.846293177], [694608.391566265, 2569527.3619920057], [694617.1508942577, 2569518.686746988], [694618.391566265, 2569517.8634587373], [694628.3915662649, 2569517.826586809], [694638.391566265, 2569508.543122678], [694648.391566265, 2569507.843756995], [694658.391566265, 2569507.2850338123], [694667.0805733961, 2569498.686746988], [694668.391566265, 2569497.8614456104], [694678.391566265, 2569497.8233592436], [694688.391566265, 2569488.0040473915], [694698.391566265, 2569487.841051864], [694708.391566265, 2569487.193285117], [694716.996581197, 2569478.686746988], [694718.391566265, 2569477.859296535], [694728.391566265, 2569477.8199130204], [694738.391566265, 2569467.8863435276], [694748.391566265, 2569467.838160051], [694758.391566265, 2569467.082029694], [694766.8945048718, 2569458.686746988], [694768.391566265, 2569457.8569981726], [694778.391566265, 2569457.8162248353], [694788.3915662651, 2569447.88498291], [694798.391566265, 2569447.8350621276], [694808.391566265, 2569446.944304222], [694816.7677905816, 2569438.686746988], [694818.391566265, 2569437.8545317715], [694828.391566265, 2569437.812269509], [694838.391566265, 2569427.8835232332], [694848.391566265, 2569427.831734633], [694858.3915662649, 2569426.7693880135], [694866.6062997588, 2569418.686746988], [694868.391566265, 2569417.851879651], [694878.391566265, 2569417.808014225], [694888.391566265, 2569407.881952961], [694898.391566265, 2569407.8281517047], [694908.391566265, 2569406.53986724], [694916.3934405269, 2569398.686746988], [694918.391566265, 2569397.8490197123], [694928.391566265, 2569397.8034250056], [694938.391566265, 2569387.880258738], [694948.391566265, 2569387.824282405], [694958.391566265, 2569386.2254382046], [694966.1000630648, 2569378.686746988], [694968.391566265, 2569377.8459271956], [694978.391566265, 2569377.7984606028], [694988.391566265, 2569367.8784276564], [694998.391566265, 2569367.8200906417], [695008.391566265, 2569365.7682959307], [695015.669828357, 2569358.686746988], [695018.391566265, 2569357.8425721605], [695028.391566265, 2569357.793073783], [695038.391566265, 2569347.8764382475], [695048.391566265, 2569347.8155350857], [695058.391566265, 2569345.042760983], [695064.9778475533, 2569338.686746988], [695068.391566265, 2569337.838919354], [695078.391566265, 2569337.7872074614], [695088.391566265, 2569327.874270854], [695098.391566265, 2569327.81056772], [695108.391566265, 2569323.714227747], [695113.6808115761, 2569318.686746988], [695118.391566265, 2569317.8349280637], [695128.391566265, 2569317.7662449777], [695138.391566265, 2569307.871901216], [695148.391566265, 2569307.805125414], [695158.391566265, 2569300.4964979813], [695160.3687362074, 2569298.686746988], [695168.391566265, 2569297.830548523], [695178.391566265, 2569297.7247275775], [695188.3915662649, 2569287.869299223], [695198.391566265, 2569287.796522492], [695208.391566265, 2569278.0851186207], [695228.3915662651, 2569277.675231], [695238.391566265, 2569267.86642855], [695248.391566265, 2569267.786259985], [695258.391566265, 2569257.9078294155], [695268.391566265, 2569257.820373245], [695278.3915662649, 2569257.6152110565], [695288.391566265, 2569247.863246198], [695298.391566265, 2569247.7779978714], [695308.391566265, 2569237.9068891485], [695318.3915662651, 2569237.814419047], [695328.391566265, 2569237.540910954], [695337.372970944, 2569228.686746988], [695338.391566265, 2569227.8596979887], [695348.3915662651, 2569227.7692911224], [695358.391566265, 2569217.905839342], [695368.391566265, 2569217.8077427447], [695378.391566265, 2569217.446550393], [695387.2945255374, 2569208.686746988], [695388.3915662651, 2569207.855716518], [695398.391566265, 2569207.7594873128], [695408.391566265, 2569197.9046606333], [695418.391566265, 2569197.800208841], [695428.391566265, 2569197.3227280797], [695437.1911267119, 2569188.686746988], [695438.391566265, 2569187.851218354], [695448.391566265, 2569187.7483664067], [695458.3915662649, 2569177.9033271666], [695468.391566265, 2569177.7916400884], [695478.391566265, 2569177.153101803], [695487.0486174574, 2569168.686746988], [695488.3915662651, 2569167.8460947652], [695498.391566265, 2569167.735643136], [695508.391566265, 2569157.901805816], [695518.391566265, 2569157.781806933], [695528.391566265, 2569156.9064837834], [695536.8396330945, 2569148.686746988], [695538.391566265, 2569147.840209976], [695548.391566265, 2569147.7209436093], [695558.3915662649, 2569137.900055075], [695568.391566265, 2569137.7704086904], [695578.391566265, 2569136.5150708226], [695586.5034970723, 2569128.686746988], [695588.391566265, 2569127.8333723824], [695598.391566265, 2569127.7037702748], [695608.391566265, 2569117.8980180994], [695618.391566265, 2569117.7570377607], [695628.391566265, 2569115.7983604595], [695635.8734582923, 2569108.686746988], [695638.391566265, 2569107.8253341652], [695648.391566265, 2569107.683444046], [695658.391566265, 2569097.8956177984], [695668.391566265, 2569097.741135344], [695678.391566265, 2569094.062465772], [695684.2646007149, 2569088.686746988], [695688.391566265, 2569087.815750391], [695698.391566265, 2569087.658998308], [695708.391566265, 2569077.892749071], [695718.391566265, 2569077.721906193], [695728.391566265, 2569068.336275397], [695738.391566265, 2569067.804126788], [695748.391566265, 2569067.629048176], [695758.391566265, 2569057.889263501], [695768.3915662651, 2569057.6981833866], [695778.391566265, 2569047.9774695737], [695798.391566265, 2569047.587463312], [695808.391566265, 2569037.88492517], [695818.391566265, 2569037.66818618], [695828.391566265, 2569027.9839745536], [695848.391566265, 2569027.5257511544], [695858.391566265, 2569017.8793882392], [695868.391566265, 2569017.629050244], [695878.391566265, 2569007.992320833], [695898.391566265, 2569007.445033583], [695908.391566265, 2568997.872074631], [695918.391566265, 2568997.5758283096], [695928.391566265, 2568988.0034174956], [695948.391566265, 2568987.3434393555], [695958.391566265, 2568977.861964337], [695968.391566265, 2568977.4992673504], [695978.391566265, 2568968.018899486], [695988.391566265, 2568967.666692168], [695998.391566265, 2568967.187284476], [696008.391566265, 2568957.847078795], [696018.391566265, 2568957.379698871], [696028.3915662649, 2568948.041981943], [696038.391566265, 2568947.590651662], [696048.391566265, 2568946.9164760127], [696057.283927294, 2568938.686746988], [696058.391566265, 2568937.8229844472], [696068.391566265, 2568937.166724922], [696078.391566265, 2568928.080104128], [696088.391566265, 2568927.451166873], [696098.3915662649, 2568926.3315262115], [696107.0565466842, 2568918.686746988], [696108.391566265, 2568917.777305082], [696118.391566265, 2568916.6807751544], [696127.5810878159, 2568908.686746988], [696128.3915662651, 2568908.1550772926], [696138.391566265, 2568907.111912555], [696148.3915662651, 2568903.603609558], [696155.7927682005, 2568898.686746988], [696158.3915662649, 2568897.5744566666], [696168.391566265, 2568891.329484797], [696178.3915662651, 2568889.6445209603], [696218.391566265, 2568889.6445209603], [696222.0131173139, 2568888.6867469884], [696228.391566265, 2568885.8095355453], [696238.391566265, 2568881.510237164], [696252.8497237737, 2568878.6867469875], [696258.391566265, 2568876.177244149], [696268.391566265, 2568871.510237164], [696282.8497237737, 2568868.6867469875], [696288.391566265, 2568866.177244149], [696298.391566265, 2568861.510237164], [696312.8497237735, 2568858.6867469875], [696318.391566265, 2568856.177244149], [696328.391566265, 2568851.510237164], [696342.8497237737, 2568848.6867469875], [696348.391566265, 2568846.177244149], [696358.391566265, 2568841.510237164], [696368.3915662651, 2568839.7817641324], [696369.4865834096, 2568838.686746988], [696379.8189983964, 2568828.686746988], [696458.391566265, 2568750.1141791195], [696468.391566265, 2568741.662642847], [696508.391566265, 2568741.662642847], [696518.391566265, 2568738.686746988], [696518.391566265, 2568728.686746988], [696508.391566265, 2568718.686746988], [696498.391566265, 2568718.686746988], [696498.391566265, 2568718.686746988], [696498.391566265, 2568678.686746988]]}}]}