{"type": "FeatureCollection", "crs": {"type": "name", "properties": {"name": "urn:ogc:def:crs:EPSG::32640"}}, "features": [{"type": "Feature", "properties": {"hours": 0.25, "label": "15 min"}, "geometry": {"type": "LineString", "coordinates": [[696008.391566265, 2576118.686746988], [695918.391566265, 2576118.686746988], [695918.391566265, 2576118.686746988], [695918.391566265, 2575998.686746988], [695918.391566265, 2575998.686746988], [696068.391566265, 2575998.686746988], [696088.391566265, 2575978.686746988]]}}, {"type": "Feature", "properties": {"hours": 0.25, "label": "15 min"}, "geometry": {"type": "LineString", "coordinates": [[696028.391566265, 2573978.686746988], [696098.391566265, 2574048.686746988], [696218.391566265, 2574048.686746988], [696268.391566265, 2573998.686746988], [696268.391566265, 2573998.686746988], [696298.391566265, 2573998.686746988], [696298.391566265, 2573998.686746988], [696348.391566265, 2574048.686746988], [696488.391566265, 2574048.686746988], [696488.391566265, 2574048.686746988], [696488.391566265, 2574088.686746988], [696498.391566265, 2574098.686746988], [696538.391566265, 2574098.686746988], [696538.391566265, 2574098.686746988], [696538.391566265, 2574138.686746988], [696548.391566265, 2574148.686746988], [696648.391566265, 2574148.686746988], [696648.391566265, 2574148.686746988], [696688.391566265, 2574188.686746988], [696688.391566265, 2574188.686746988], [696688.391566265, 2574388.686746988], [696698.391566265, 2574398.686746988], [696738.391566265, 2574398.686746988], [696738.391566265, 2574398.686746988], [696738.391566265, 2574438.686746988], [696798.391566265, 2574498.686746988], [696838.391566265, 2574498.686746988], [696838.391566265, 2574498.686746988], [696838.391566265, 2574618.686746988], [696838.391566265, 2574618.686746988], [696798.391566265, 2574618.686746988], [696788.391566265, 2574628.686746988], [696788.391566265, 2574638.686746988], [696838.391566265, 2574688.686746988], [696838.391566265, 2574688.686746988], [696838.391566265, 2574758.686746988], [696848.391566265, 2574768.686746988]]}}, {"type": "Feature", "properties": {"hours": 0.25, "label": "15 min"}, "geometry": {"type": "LineString", "coordinates": [[695978.391566265, 2573328.686746988], [695988.391566265, 2573338.686746988], [695988.391566265, 2573338.686746988], [695988.391566265, 2573388.686746988], [695998.391566265, 2573398.686746988], [696048.391566265, 2573398.686746988], [696048.391566265, 2573398.686746988], [696098.391566265, 2573448.686746988], [696148.391566265, 2573448.686746988], [696148.391566265, 2573448.686746988], [696188.391566265, 2573488.686746988], [696188.391566265, 2573488.686746988], [696188.391566265, 2573568.686746988], [696188.391566265, 2573568.686746988], [696138.391566265, 2573618.686746988], [696138.391566265, 2573668.686746988], [696138.391566265, 2573668.686746988], [696088.391566265, 2573718.686746988], [696088.391566265, 2573768.686746988], [696088.391566265, 2573768.686746988], [696038.391566265, 2573818.686746988], [696038.391566265, 2573868.686746988], [696038.391566265, 2573868.686746988], [695988.391566265, 2573918.686746988], [695988.391566265, 2573938.686746988], [696008.391566265, 2573958.686746988]]}}, {"type": "Feature", "properties": {"hours": 0.25, "label": "15 min"}, "geometry": {"type": "LineString", "coordinates": [[693718.391566265, 2573018.686746988], [693718.391566265, 2572998.686746988], [693718.391566265, 2572998.686746988], [693758.391566265, 2572958.686746988], [693758.391566265, 2572958.686746988], [693763.1881100327, 2572948.6867469875], [693768.391566265, 2572938.686746988], [693768.391566265, 2572898.686746988], [693768.391566265, 2572898.686746988], [693848.391566265, 2572898.686746988], [693848.391566265, 2572898.686746988], [693898.391566265, 2572948.686746988], [694038.391566265, 2572948.686746988], [694038.391566265, 2572948.686746988], [694038.391566265, 2572988.686746988], [694048.391566265, 2572998.686746988], [694098.391566265, 2572998.686746988], [694098.391566265, 2572998.686746988], [694198.391566265, 2573098.686746988], [694368.391566265, 2573098.686746988], [694418.391566265, 2573048.686746988], [694418.391566265, 2573048.686746988], [694508.391566265, 2573048.686746988], [694518.391566265, 2573038.686746988], [694518.391566265, 2572998.686746988], [694518.391566265, 2572998.686746988], [694658.391566265, 2572998.686746988], [694668.391566265, 2572988.686746988], [694668.391566265, 2572948.686746988], [694668.391566265, 2572948.686746988], [694758.391566265, 2572948.686746988], [694768.391566265, 2572938.686746988], [694768.391566265, 2572898.686746988], [694768.391566265, 2572898.686746988], [695118.391566265, 2572898.686746988], [695128.391566265, 2572888.686746988], [695128.391566265, 2572888.686746988], [695148.391566265, 2572888.686746988], [695158.391566265, 2572878.686746988], [695158.391566265, 2572878.686746988], [695198.391566265, 2572878.686746988], [695198.391566265, 2572878.686746988], [695208.391566265, 2572888.686746988], [695238.391566265, 2572888.686746988], [695238.391566265, 2572888.686746988], [695248.391566265, 2572898.686746988], [695248.391566265, 2572898.686746988], [695248.391566265, 2572908.686746988], [695258.391566265, 2572918.686746988], [695288.391566265, 2572918.686746988], [695288.391566265, 2572918.686746988], [695288.391566265, 2572928.686746988], [695308.391566265, 2572948.686746988], [695308.391566265, 2572948.686746988], [695308.391566265, 2572958.686746988], [695328.391566265, 2572978.686746988], [695328.391566265, 2572978.686746988], [695328.391566265, 2572988.686746988], [695358.391566265, 2573018.686746988], [695358.391566265, 2573018.686746988], [695358.391566265, 2573028.686746988], [695388.391566265, 2573058.686746988], [695388.391566265, 2573058.686746988], [695388.391566265, 2573068.686746988], [695418.391566265, 2573098.686746988], [695418.391566265, 2573098.686746988], [695418.391566265, 2573108.686746988], [695458.391566265, 2573148.686746988], [695478.391566265, 2573148.686746988], [695478.391566265, 2573148.686746988], [695538.391566265, 2573208.686746988], [695548.391566265, 2573208.686746988], [695548.391566265, 2573208.686746988], [695558.391566265, 2573218.686746988], [695608.391566265, 2573218.686746988], [695608.391566265, 2573218.686746988], [695618.391566265, 2573228.686746988], [695628.391566265, 2573228.686746988], [695638.391566265, 2573218.686746988], [695638.391566265, 2573218.686746988], [695678.391566265, 2573218.686746988], [695678.391566265, 2573218.686746988], [695688.391566265, 2573228.686746988], [695698.391566265, 2573228.686746988], [695698.391566265, 2573228.686746988], [695708.391566265, 2573238.686746988], [695728.391566265, 2573238.686746988], [695728.391566265, 2573238.686746988], [695738.391566265, 2573248.686746988], [695798.391566265, 2573248.686746988], [695798.391566265, 2573248.686746988], [695828.391566265, 2573278.686746988], [695838.391566265, 2573278.686746988], [695868.391566265, 2573248.686746988], [695868.391566265, 2573248.686746988], [695898.391566265, 2573248.686746988], [695898.391566265, 2573248.686746988], [695958.391566265, 2573308.686746988], [695958.391566265, 2573308.686746988]]}}, {"type": "Feature", "properties": {"hours": 0.5, "label": "30 min"}, "geometry": {"type": "LineString", "coordinates": [[693578.391566265, 2572598.686746988], [693608.391566265, 2572598.686746988], [693618.391566265, 2572588.686746988], [693618.391566265, 2572448.686746988], [693618.391566265, 2572448.686746988], [693668.391566265, 2572398.686746988], [693668.391566265, 2572348.686746988], [693668.391566265, 2572348.686746988], [693768.391566265, 2572348.686746988], [693818.391566265, 2572298.686746988], [693818.391566265, 2572298.686746988], [693858.391566265, 2572298.686746988], [693868.391566265, 2572288.686746988], [693868.391566265, 2572048.686746988], [693868.391566265, 2572048.686746988], [693908.391566265, 2572048.686746988], [693918.391566265, 2572038.686746988], [693918.391566265, 2571998.686746988], [693918.391566265, 2571998.686746988], [693998.391566265, 2571998.686746988], [693998.391566265, 2571998.686746988], [694028.391566265, 2572028.686746988], [694038.391566265, 2572028.686746988], [694068.391566265, 2571998.686746988], [694068.391566265, 2571998.686746988], [694218.391566265, 2571998.686746988], [694268.391566265, 2571948.686746988], [694268.391566265, 2571948.686746988], [694368.391566265, 2571948.686746988], [694418.391566265, 2571898.686746988], [694418.391566265, 2571898.686746988], [694518.391566265, 2571898.686746988], [694568.391566265, 2571848.686746988], [694568.391566265, 2571848.686746988], [694668.391566265, 2571848.686746988], [694678.391566265, 2571838.686746988], [694678.391566265, 2571828.686746988], [694678.391566265, 2571828.686746988], [694698.391566265, 2571808.686746988], [694698.391566265, 2571808.686746988], [694728.391566265, 2571808.686746988], [694728.391566265, 2571808.686746988], [694728.391566265, 2571818.686746988], [694738.391566265, 2571828.686746988], [694768.391566265, 2571828.686746988], [694768.391566265, 2571828.686746988], [694778.391566265, 2571838.686746988], [694788.391566265, 2571838.686746988], [694788.391566265, 2571838.686746988], [694798.391566265, 2571848.686746988], [694798.391566265, 2571848.686746988], [694798.391566265, 2571868.686746988], [694808.391566265, 2571878.686746988], [694818.391566265, 2571878.686746988], [694818.391566265, 2571878.686746988], [694828.391566265, 2571888.686746988], [694828.391566265, 2571888.686746988], [694828.391566265, 2571968.686746988], [694838.391566265, 2571978.686746988], [694838.391566265, 2571978.686746988], [694838.391566265, 2571998.686746988], [694848.391566265, 2572008.686746988], [694848.391566265, 2572008.686746988], [694848.391566265, 2572028.686746988], [694868.391566265, 2572048.686746988], [694888.391566265, 2572048.686746988], [694908.391566265, 2572028.686746988], [694908.391566265, 2572028.686746988], [694918.391566265, 2572028.686746988], [694938.391566265, 2572008.686746988], [694938.391566265, 2572008.686746988], [694948.391566265, 2572008.686746988], [694958.391566265, 2571998.686746988], [694958.391566265, 2571998.686746988], [694998.391566265, 2571998.686746988], [694998.391566265, 2571998.686746988], [695048.391566265, 2572048.686746988], [695508.391566265, 2572048.686746988], [695518.391566265, 2572038.686746988], [695518.391566265, 2571998.686746988], [695518.391566265, 2571998.686746988], [695558.391566265, 2571998.686746988], [695578.391566265, 2571978.686746988], [695578.391566265, 2571968.686746988], [695578.391566265, 2571968.686746988], [695588.391566265, 2571958.686746988], [695588.391566265, 2571948.686746988], [695588.391566265, 2571948.686746988], [695598.391566265, 2571938.686746988], [695598.391566265, 2571938.686746988], [695678.391566265, 2571938.686746988], [695678.391566265, 2571938.686746988], [695688.391566265, 2571948.686746988], [695708.391566265, 2571928.686746988], [695708.391566265, 2571928.686746988], [695728.391566265, 2571928.686746988], [695728.391566265, 2571928.686746988], [695748.391566265, 2571948.686746988], [695748.391566265, 2571948.686746988], [695748.391566265, 2571958.686746988], [695758.391566265, 2571968.686746988], [695758.391566265, 2571968.686746988], [695758.391566265, 2571978.686746988], [695818.391566265, 2572038.686746988], [695818.391566265, 2572038.686746988], [695818.391566265, 2572048.686746988], [695858.391566265, 2572088.686746988], [695868.391566265, 2572078.686746988], [695868.391566265, 2572078.686746988], [695888.391566265, 2572078.686746988], [695898.391566265, 2572068.686746988], [695898.391566265, 2572058.686746988], [695888.391566265, 2572048.686746988], [695888.391566265, 2572048.686746988], [695888.391566265, 2572018.686746988], [695888.391566265, 2572018.686746988], [695898.391566265, 2572008.686746988], [695898.391566265, 2572008.686746988], [695908.391566265, 2572008.686746988], [695918.391566265, 2571998.686746988], [695918.391566265, 2571998.686746988], [696008.391566265, 2571998.686746988], [696018.391566265, 2571988.686746988], [696018.391566265, 2571948.686746988], [696018.391566265, 2571948.686746988], [696108.391566265, 2571948.686746988], [696118.391566265, 2571938.686746988], [696118.391566265, 2571898.686746988], [696118.391566265, 2571898.686746988], [696248.391566265, 2571898.686746988], [696248.391566265, 2571898.686746988], [696298.391566265, 2571948.686746988], [696448.391566265, 2571948.686746988], [696448.391566265, 2571948.686746988], [696538.391566265, 2572038.686746988], [696538.391566265, 2572038.686746988], [696538.391566265, 2572088.686746988], [696548.391566265, 2572098.686746988], [696618.391566265, 2572098.686746988]]}}]}