{"type": "FeatureCollection", "crs": {"type": "name", "properties": {"name": "urn:ogc:def:crs:EPSG::32640"}}, "features": [{"type": "Feature", "properties": {"level": 0.16666666666666666, "label": "10 min"}, "geometry": {"type": "LineString", "coordinates": [[694038.3915641314, 2575498.686746988], [694018.391566265, 2575518.68674306], [694008.3915639214, 2575518.686746988], [693998.391566265, 2575528.6867446443], [693988.3915575385, 2575528.686746988], [693978.391566265, 2575538.6867382615], [693948.391566265, 2575538.686739431], [693938.391566265, 2575528.6867452846], [693928.391566265, 2575528.6867405586], [693918.391566265, 2575518.68674486], [693908.391566265, 2575518.686732847], [693898.3915804066, 2575508.686746988], [693898.391566265, 2575468.686745295], [693888.391566265, 2575468.686734375], [693878.3915788782, 2575458.686746988], [693878.391566265, 2575438.6867201454], [693868.3915614687, 2575438.6867469884], [693858.3915635124, 2575448.686746988], [693858.3915581557, 2575458.6867469884], [693838.3915662651, 2575478.68671645], [693818.3915641177, 2575478.686746988], [693818.3915585818, 2575488.6867469875], [693808.391566265, 2575498.6867393046], [693798.391566265, 2575498.6867393046]]}}, {"type": "Feature", "properties": {"level": 0.16666666666666666, "label": "10 min"}, "geometry": {"type": "LineString", "coordinates": [[693368.3915671374, 2575428.6867461153], [693368.3915662649, 2575428.686745712], [693338.391566265, 2575428.686741729], [693328.3915715241, 2575418.6867469875], [693328.391566265, 2575398.686745599], [693328.3915576548, 2575398.686746988], [693318.391566265, 2575408.686738378], [693298.391566265, 2575408.686738378], [693288.391566265, 2575398.686745714], [693278.391566265, 2575398.686744228], [693268.391566265, 2575388.6867452413], [693228.391566265, 2575388.686719066], [693198.391566265, 2575358.6867446383], [693188.391566265, 2575358.6867373777], [693178.3915758755, 2575348.686746988], [693178.3915662649, 2575338.6867443565], [693158.3915662649, 2575338.686743364], [693118.391597857, 2575298.686746988], [693118.3915662649, 2575258.686742692], [693108.391566265, 2575258.68670632], [693058.391566265, 2575208.686741768], [693048.391566265, 2575208.686723182], [693028.3915662649, 2575188.6867207703]]}}, {"type": "Feature", "properties": {"level": 0.16666666666666666, "label": "10 min"}, "geometry": {"type": "LineString", "coordinates": [[694598.3915589503, 2575318.6867396734], [694588.3915563464, 2575318.686746988], [694578.3915578971, 2575328.6867469875], [694578.3915145622, 2575338.686746988], [694558.391566265, 2575358.686743806], [694468.391564288, 2575358.686746988], [694468.3915598347, 2575378.686746988], [694448.3915662649, 2575398.686725366], [694388.3915625488, 2575398.686746988], [694388.3915577698, 2575418.686746988], [694378.391566265, 2575428.686738493], [694368.3915583311, 2575428.686746988], [694358.3915662651, 2575438.686739054], [694348.3915493764, 2575438.686746988], [694338.3915662649, 2575448.6867300994], [694318.3915558913, 2575448.686746988], [694308.391566265, 2575458.686736614], [694208.3915583896, 2575458.686746988], [694208.3915440105, 2575478.686746988]]}}, {"type": "Feature", "properties": {"level": 0.16666666666666666, "label": "10 min"}, "geometry": {"type": "LineString", "coordinates": [[694478.3915683101, 2573878.6867490327], [694478.3915697415, 2573878.686746988], [694518.391566265, 2573838.6867515226], [694548.391566265, 2573838.686755563], [694598.391566265, 2573888.6867512306], [694738.391566265, 2573888.6867516073], [694748.3915616455, 2573898.686746988], [694748.391566265, 2573938.686755563], [694798.3915576903, 2573988.686746988], [694798.391566265, 2574038.686762497], [694848.391550756, 2574088.686746988], [694848.3915590545, 2574118.686746988], [694838.3915623124, 2574128.686746988], [694838.391511104, 2574138.686746988], [694818.391566265, 2574158.686731808], [694808.3915596039, 2574158.686746988], [694808.391566265, 2574158.6867492483], [694818.3915640047, 2574168.686746988], [694818.3915607322, 2574208.686746988], [694808.3915646186, 2574218.686746988], [694808.391566265, 2574258.686779857], [694818.3915333962, 2574268.686746988], [694818.391566265, 2574278.6868075775], [694828.3915056754, 2574288.686746988], [694828.3915662649, 2574298.686848906], [694838.3914643469, 2574308.686746988], [694838.391566265, 2574318.6870675934], [694848.3912456597, 2574328.686746988], [694848.3915357268, 2574618.686746988], [694838.391566265, 2574628.68671645], [694798.3915616455, 2574628.686746988], [694798.3915608596, 2574718.6867469884], [694778.3915630855, 2574738.686746988], [694778.391566265, 2574748.686750572], [694788.3915662649, 2574748.6867878577], [694808.3915622513, 2574768.686746988], [694808.3915662649, 2574798.6867487635], [694818.391566265, 2574798.6867507454], [694828.3915625076, 2574808.686746988], [694828.3915662649, 2574818.686750773], [694838.391566265, 2574828.6867494667], [694848.391566265, 2574828.6867549377], [694858.391558315, 2574838.686746988], [694858.391566265, 2574848.6867507957], [694878.391566265, 2574868.686748267], [694898.3915662651, 2574868.6867514076], [694908.3915662651, 2574878.686748339], [694928.391566265, 2574878.6867523934], [694938.391566265, 2574888.68674842], [694958.391566265, 2574888.6867543715], [694978.39156409, 2574908.686746988], [694978.3915631301, 2574938.6867469884], [694968.391564984, 2574948.6867469884], [694968.3915625345, 2574958.686746988], [694958.391566265, 2574968.6867500856], [694968.3915631674, 2574978.686746988], [694968.3915615713, 2575018.686746988], [694958.3915648644, 2575028.686746988], [694958.3915438262, 2575078.686746988], [694938.391566265, 2575098.686735464], [694918.391566265, 2575098.686735464], [694908.3915635707, 2575088.686746988], [694898.391566265, 2575098.6867442937], [694868.3915635835, 2575098.686746988], [694868.3915621141, 2575108.686746988], [694858.3915506677, 2575118.686746988], [694858.3915506677, 2575138.686746988], [694848.391566265, 2575148.6867313907], [694808.3915637841, 2575148.686746988], [694808.3914994794, 2575198.686746988], [694798.3915616771, 2575208.686746988], [694798.3915146645, 2575218.686746988], [694788.3915662649, 2575228.6866953876], [694688.3915622525, 2575228.686746988], [694648.3915574929, 2575268.686746988], [694648.3915574929, 2575278.686738216]]}}, {"type": "Feature", "properties": {"level": 0.25, "label": "15 min"}, "geometry": {"type": "LineString", "coordinates": [[696008.391566265, 2576118.686746988], [695918.391566265, 2576118.686746988], [695918.391566265, 2576118.686746988], [695918.391566265, 2575998.686746988], [695918.391566265, 2575998.686746988], [696068.391566265, 2575998.686746988], [696088.391566265, 2575978.686746988]]}}, {"type": "Feature", "properties": {"level": 0.25, "label": "15 min"}, "geometry": {"type": "LineString", "coordinates": [[696028.391566265, 2573978.686746988], [696098.391566265, 2574048.686746988], [696218.391566265, 2574048.686746988], [696268.391566265, 2573998.686746988], [696268.391566265, 2573998.686746988], [696298.391566265, 2573998.686746988], [696298.391566265, 2573998.686746988], [696348.391566265, 2574048.686746988], [696488.391566265, 2574048.686746988], [696488.391566265, 2574048.686746988], [696488.391566265, 2574088.686746988], [696498.391566265, 2574098.686746988], [696538.391566265, 2574098.686746988], [696538.391566265, 2574098.686746988], [696538.391566265, 2574138.686746988], [696548.391566265, 2574148.686746988], [696648.391566265, 2574148.686746988], [696648.391566265, 2574148.686746988], [696688.391566265, 2574188.686746988], [696688.391566265, 2574188.686746988], [696688.391566265, 2574388.686746988], [696698.391566265, 2574398.686746988], [696738.391566265, 2574398.686746988], [696738.391566265, 2574398.686746988], [696738.391566265, 2574438.686746988], [696798.391566265, 2574498.686746988], [696838.391566265, 2574498.686746988], [696838.391566265, 2574498.686746988], [696838.391566265, 2574618.686746988], [696838.391566265, 2574618.686746988], [696798.391566265, 2574618.686746988], [696788.391566265, 2574628.686746988], [696788.391566265, 2574638.686746988], [696838.391566265, 2574688.686746988], [696838.391566265, 2574688.686746988], [696838.391566265, 2574758.686746988], [696848.391566265, 2574768.686746988]]}}, {"type": "Feature", "properties": {"level": 0.25, "label": "15 min"}, "geometry": {"type": "LineString", "coordinates": [[695978.391566265, 2573328.686746988], [695988.391566265, 2573338.686746988], [695988.391566265, 2573338.686746988], [695988.391566265, 2573388.686746988], [695998.391566265, 2573398.686746988], [696048.391566265, 2573398.686746988], [696048.391566265, 2573398.686746988], [696098.391566265, 2573448.686746988], [696148.391566265, 2573448.686746988], [696148.391566265, 2573448.686746988], [696188.391566265, 2573488.686746988], [696188.391566265, 2573488.686746988], [696188.391566265, 2573568.686746988], [696188.391566265, 2573568.686746988], [696138.391566265, 2573618.686746988], [696138.391566265, 2573668.686746988], [696138.391566265, 2573668.686746988], [696088.391566265, 2573718.686746988], [696088.391566265, 2573768.686746988], [696088.391566265, 2573768.686746988], [696038.391566265, 2573818.686746988], [696038.391566265, 2573868.686746988], [696038.391566265, 2573868.686746988], [695988.391566265, 2573918.686746988], [695988.391566265, 2573938.686746988], [696008.391566265, 2573958.686746988]]}}, {"type": "Feature", "properties": {"level": 0.25, "label": "15 min"}, "geometry": {"type": "LineString", "coordinates": [[693718.391566265, 2573018.686746988], [693718.391566265, 2572998.686746988], [693718.391566265, 2572998.686746988], [693758.391566265, 2572958.686746988], [693758.391566265, 2572958.686746988], [693763.1881100327, 2572948.6867469875], [693768.391566265, 2572938.686746988], [693768.391566265, 2572898.686746988], [693768.391566265, 2572898.686746988], [693848.391566265, 2572898.686746988], [693848.391566265, 2572898.686746988], [693898.391566265, 2572948.686746988], [694038.391566265, 2572948.686746988], [694038.391566265, 2572948.686746988], [694038.391566265, 2572988.686746988], [694048.391566265, 2572998.686746988], [694098.391566265, 2572998.686746988], [694098.391566265, 2572998.686746988], [694198.391566265, 2573098.686746988], [694368.391566265, 2573098.686746988], [694418.391566265, 2573048.686746988], [694418.391566265, 2573048.686746988], [694508.391566265, 2573048.686746988], [694518.391566265, 2573038.686746988], [694518.391566265, 2572998.686746988], [694518.391566265, 2572998.686746988], [694658.391566265, 2572998.686746988], [694668.391566265, 2572988.686746988], [694668.391566265, 2572948.686746988], [694668.391566265, 2572948.686746988], [694758.391566265, 2572948.686746988], [694768.391566265, 2572938.686746988], [694768.391566265, 2572898.686746988], [694768.391566265, 2572898.686746988], [695118.391566265, 2572898.686746988], [695128.391566265, 2572888.686746988], [695128.391566265, 2572888.686746988], [695148.391566265, 2572888.686746988], [695158.391566265, 2572878.686746988], [695158.391566265, 2572878.686746988], [695198.391566265, 2572878.686746988], [695198.391566265, 2572878.686746988], [695208.391566265, 2572888.686746988], [695238.391566265, 2572888.686746988], [695238.391566265, 2572888.686746988], [695248.391566265, 2572898.686746988], [695248.391566265, 2572898.686746988], [695248.391566265, 2572908.686746988], [695258.391566265, 2572918.686746988], [695288.391566265, 2572918.686746988], [695288.391566265, 2572918.686746988], [695288.391566265, 2572928.686746988], [695308.391566265, 2572948.686746988], [695308.391566265, 2572948.686746988], [695308.391566265, 2572958.686746988], [695328.391566265, 2572978.686746988], [695328.391566265, 2572978.686746988], [695328.391566265, 2572988.686746988], [695358.391566265, 2573018.686746988], [695358.391566265, 2573018.686746988], [695358.391566265, 2573028.686746988], [695388.391566265, 2573058.686746988], [695388.391566265, 2573058.686746988], [695388.391566265, 2573068.686746988], [695418.391566265, 2573098.686746988], [695418.391566265, 2573098.686746988], [695418.391566265, 2573108.686746988], [695458.391566265, 2573148.686746988], [695478.391566265, 2573148.686746988], [695478.391566265, 2573148.686746988], [695538.391566265, 2573208.686746988], [695548.391566265, 2573208.686746988], [695548.391566265, 2573208.686746988], [695558.391566265, 2573218.686746988], [695608.391566265, 2573218.686746988], [695608.391566265, 2573218.686746988], [695618.391566265, 2573228.686746988], [695628.391566265, 2573228.686746988], [695638.391566265, 2573218.686746988], [695638.391566265, 2573218.686746988], [695678.391566265, 2573218.686746988], [695678.391566265, 2573218.686746988], [695688.391566265, 2573228.686746988], [695698.391566265, 2573228.686746988], [695698.391566265, 2573228.686746988], [695708.391566265, 2573238.686746988], [695728.391566265, 2573238.686746988], [695728.391566265, 2573238.686746988], [695738.391566265, 2573248.686746988], [695798.391566265, 2573248.686746988], [695798.391566265, 2573248.686746988], [695828.391566265, 2573278.686746988], [695838.391566265, 2573278.686746988], [695868.391566265, 2573248.686746988], [695868.391566265, 2573248.686746988], [695898.391566265, 2573248.686746988], [695898.391566265, 2573248.686746988], [695958.391566265, 2573308.686746988], [695958.391566265, 2573308.686746988]]}}, {"type": "Feature", "properties": {"level": 0.5, "label": "30 min"}, "geometry": {"type": "LineString", "coordinates": [[693578.391566265, 2572598.686746988], [693608.391566265, 2572598.686746988], [693618.391566265, 2572588.686746988], [693618.391566265, 2572448.686746988], [693618.391566265, 2572448.686746988], [693668.391566265, 2572398.686746988], [693668.391566265, 2572348.686746988], [693668.391566265, 2572348.686746988], [693768.391566265, 2572348.686746988], [693818.391566265, 2572298.686746988], [693818.391566265, 2572298.686746988], [693858.391566265, 2572298.686746988], [693868.391566265, 2572288.686746988], [693868.391566265, 2572048.686746988], [693868.391566265, 2572048.686746988], [693908.391566265, 2572048.686746988], [693918.391566265, 2572038.686746988], [693918.391566265, 2571998.686746988], [693918.391566265, 2571998.686746988], [693998.391566265, 2571998.686746988], [693998.391566265, 2571998.686746988], [694028.391566265, 2572028.686746988], [694038.391566265, 2572028.686746988], [694068.391566265, 2571998.686746988], [694068.391566265, 2571998.686746988], [694218.391566265, 2571998.686746988], [694268.391566265, 2571948.686746988], [694268.391566265, 2571948.686746988], [694368.391566265, 2571948.686746988], [694418.391566265, 2571898.686746988], [694418.391566265, 2571898.686746988], [694518.391566265, 2571898.686746988], [694568.391566265, 2571848.686746988], [694568.391566265, 2571848.686746988], [694668.391566265, 2571848.686746988], [694678.391566265, 2571838.686746988], [694678.391566265, 2571828.686746988], [694678.391566265, 2571828.686746988], [694698.391566265, 2571808.686746988], [694698.391566265, 2571808.686746988], [694728.391566265, 2571808.686746988], [694728.391566265, 2571808.686746988], [694728.391566265, 2571818.686746988], [694738.391566265, 2571828.686746988], [694768.391566265, 2571828.686746988], [694768.391566265, 2571828.686746988], [694778.391566265, 2571838.686746988], [694788.391566265, 2571838.686746988], [694788.391566265, 2571838.686746988], [694798.391566265, 2571848.686746988], [694798.391566265, 2571848.686746988], [694798.391566265, 2571868.686746988], [694808.391566265, 2571878.686746988], [694818.391566265, 2571878.686746988], [694818.391566265, 2571878.686746988], [694828.391566265, 2571888.686746988], [694828.391566265, 2571888.686746988], [694828.391566265, 2571968.686746988], [694838.391566265, 2571978.686746988], [694838.391566265, 2571978.686746988], [694838.391566265, 2571998.686746988], [694848.391566265, 2572008.686746988], [694848.391566265, 2572008.686746988], [694848.391566265, 2572028.686746988], [694868.391566265, 2572048.686746988], [694888.391566265, 2572048.686746988], [694908.391566265, 2572028.686746988], [694908.391566265, 2572028.686746988], [694918.391566265, 2572028.686746988], [694938.391566265, 2572008.686746988], [694938.391566265, 2572008.686746988], [694948.391566265, 2572008.686746988], [694958.391566265, 2571998.686746988], [694958.391566265, 2571998.686746988], [694998.391566265, 2571998.686746988], [694998.391566265, 2571998.686746988], [695048.391566265, 2572048.686746988], [695508.391566265, 2572048.686746988], [695518.391566265, 2572038.686746988], [695518.391566265, 2571998.686746988], [695518.391566265, 2571998.686746988], [695558.391566265, 2571998.686746988], [695578.391566265, 2571978.686746988], [695578.391566265, 2571968.686746988], [695578.391566265, 2571968.686746988], [695588.391566265, 2571958.686746988], [695588.391566265, 2571948.686746988], [695588.391566265, 2571948.686746988], [695598.391566265, 2571938.686746988], [695598.391566265, 2571938.686746988], [695678.391566265, 2571938.686746988], [695678.391566265, 2571938.686746988], [695688.391566265, 2571948.686746988], [695708.391566265, 2571928.686746988], [695708.391566265, 2571928.686746988], [695728.391566265, 2571928.686746988], [695728.391566265, 2571928.686746988], [695748.391566265, 2571948.686746988], [695748.391566265, 2571948.686746988], [695748.391566265, 2571958.686746988], [695758.391566265, 2571968.686746988], [695758.391566265, 2571968.686746988], [695758.391566265, 2571978.686746988], [695818.391566265, 2572038.686746988], [695818.391566265, 2572038.686746988], [695818.391566265, 2572048.686746988], [695858.391566265, 2572088.686746988], [695868.391566265, 2572078.686746988], [695868.391566265, 2572078.686746988], [695888.391566265, 2572078.686746988], [695898.391566265, 2572068.686746988], [695898.391566265, 2572058.686746988], [695888.391566265, 2572048.686746988], [695888.391566265, 2572048.686746988], [695888.391566265, 2572018.686746988], [695888.391566265, 2572018.686746988], [695898.391566265, 2572008.686746988], [695898.391566265, 2572008.686746988], [695908.391566265, 2572008.686746988], [695918.391566265, 2571998.686746988], [695918.391566265, 2571998.686746988], [696008.391566265, 2571998.686746988], [696018.391566265, 2571988.686746988], [696018.391566265, 2571948.686746988], [696018.391566265, 2571948.686746988], [696108.391566265, 2571948.686746988], [696118.391566265, 2571938.686746988], [696118.391566265, 2571898.686746988], [696118.391566265, 2571898.686746988], [696248.391566265, 2571898.686746988], [696248.391566265, 2571898.686746988], [696298.391566265, 2571948.686746988], [696448.391566265, 2571948.686746988], [696448.391566265, 2571948.686746988], [696538.391566265, 2572038.686746988], [696538.391566265, 2572038.686746988], [696538.391566265, 2572088.686746988], [696548.391566265, 2572098.686746988], [696618.391566265, 2572098.686746988]]}}]}