{"type": "FeatureCollection", "crs": {"type": "name", "properties": {"name": "urn:ogc:def:crs:EPSG::32640"}}, "features": [{"type": "Feature", "properties": {"level": 0.16666666666666666, "label": "10 min"}, "geometry": {"type": "LineString", "coordinates": [[694038.3915641314, 2575498.686746988], [694038.3915615244, 2575518.686746988], [694028.3915644382, 2575528.686746988], [694028.3915472483, 2575538.686746988], [694008.3915662651, 2575558.686734801], [693918.391566265, 2575558.686035953], [693908.3922773002, 2575548.686746988], [693908.391566265, 2575538.686744843], [693898.3915662649, 2575538.686731175], [693888.3915820777, 2575528.6867469875], [693888.391566265, 2575498.6867417954], [693878.3915714574, 2575488.686746988], [693878.391566265, 2575468.6867448236], [693868.3914612584, 2575468.686746988], [693858.3915636576, 2575478.686746988], [693858.3915636576, 2575488.686746988], [693838.3915662649, 2575508.6867395327], [693828.3915487431, 2575508.686746988], [693818.391566265, 2575518.686729466], [693798.391566265, 2575518.686740756]]}}, {"type": "Feature", "properties": {"level": 0.16666666666666666, "label": "10 min"}, "geometry": {"type": "LineString", "coordinates": [[693368.3915671374, 2575428.6867461153], [693368.3915662649, 2575428.686745712], [693338.391566265, 2575428.686744514], [693318.391566265, 2575408.6867420697], [693298.391566265, 2575408.6867411607], [693288.391566265, 2575398.686745714], [693278.391566265, 2575398.686744228], [693268.391566265, 2575388.6867452413], [693228.391566265, 2575388.686719066], [693198.391566265, 2575358.6867446383], [693188.391566265, 2575358.6867373777], [693178.3915758755, 2575348.686746988], [693178.3915662649, 2575338.6867443565], [693158.3915662649, 2575338.686743364], [693118.391597857, 2575298.686746988], [693118.391566265, 2575258.686740609], [693108.3915726441, 2575248.686746988], [693108.391566265, 2575178.6867414936], [693088.3914984991, 2575178.686746988], [693078.391566265, 2575188.686679222], [693038.391566265, 2575188.686733412], [693028.3915689888, 2575178.686744264]]}}, {"type": "Feature", "properties": {"level": 0.16666666666666666, "label": "10 min"}, "geometry": {"type": "LineString", "coordinates": [[694598.3915589503, 2575318.6867396734], [694588.3915563464, 2575318.686746988], [694578.3915578971, 2575328.6867469875], [694578.3915145622, 2575338.686746988], [694558.391566265, 2575358.686743806], [694518.3915662649, 2575358.6867416003], [694508.391566265, 2575348.6867452376], [694498.3915606989, 2575348.686746988], [694498.3915568794, 2575368.686746988], [694458.391566265, 2575408.6867359104], [694418.391566265, 2575408.686703562], [694408.391563042, 2575398.6867469875], [694378.3915662651, 2575428.68674063], [694368.3915583311, 2575428.686746988], [694358.3915662651, 2575438.686739054], [694348.3915493764, 2575438.686746988], [694338.3915662649, 2575448.6867300994], [694318.3915614656, 2575448.686746988], [694318.3915282367, 2575468.686746988], [694308.3915612352, 2575478.686746988], [694308.3915495598, 2575498.686746988], [694298.3915619617, 2575508.686746988]]}}, {"type": "Feature", "properties": {"level": 0.16666666666666666, "label": "10 min"}, "geometry": {"type": "LineString", "coordinates": [[694418.3915705079, 2573838.686751231], [694458.391585511, 2573838.686746988], [694458.391585511, 2573748.686746988], [694468.391566265, 2573738.686766234], [694588.391566265, 2573738.6867516073], [694598.3915616455, 2573748.686746988], [694598.391566265, 2573788.6867512306], [694638.391566265, 2573788.6867516073], [694648.3915616455, 2573798.6867469875], [694648.391566265, 2573838.686751231], [694738.391566265, 2573838.6867516073], [694748.3915616455, 2573848.686746988], [694748.3915662651, 2573888.6867512306], [694888.3915662649, 2573888.6867516073], [694898.3915616455, 2573898.686746988], [694898.391566265, 2574098.6867852644], [694908.3915279886, 2574108.686746988], [694908.391566265, 2574138.6867912137], [694918.3915220393, 2574148.686746988], [694918.3915550075, 2574178.686746988], [694908.3915640156, 2574188.686746988], [694908.3915562318, 2574198.686746988], [694898.391566265, 2574208.6867504544], [694908.3915627988, 2574218.686746988], [694908.391566265, 2574268.6867523966], [694918.391566265, 2574268.686771065], [694938.3915631593, 2574288.686746988], [694938.391566265, 2574298.6867559836], [694948.3915572697, 2574308.686746988], [694948.391566265, 2574328.686751627], [694958.391566265, 2574328.6867604163], [694968.3915662649, 2574338.6867519896], [694978.391566265, 2574338.686763979], [694988.391566265, 2574348.6867530216], [694998.391566265, 2574348.686890197], [695028.3915459635, 2574378.686746988], [695028.3915459635, 2574398.686746988], [695018.3915620357, 2574408.686746988], [695018.39154665, 2574428.686746988], [695008.3915612916, 2574438.686746988], [695008.3915022203, 2574458.6867469875], [694998.3915616455, 2574468.686746988], [694998.3915432035, 2574528.686746988], [694978.3915632418, 2574548.686746988], [694978.3915590679, 2574558.686746988], [694968.391566265, 2574568.6867506607], [694978.3915625924, 2574578.686746988], [694978.3915635421, 2574608.686746988], [694968.3915648643, 2574618.686746988], [694968.3915574678, 2574648.686746988], [694958.3915640763, 2574658.6867469875], [694958.3915335487, 2574698.686746988], [694948.3915621681, 2574708.686746988], [694948.3915357268, 2574718.686746988], [694938.391566265, 2574728.68671645], [694898.3915616455, 2574728.686746988], [694898.391566265, 2574788.6867555627], [694948.3915576903, 2574838.686746988], [694948.3915310944, 2574878.686746988], [694928.3915627286, 2574898.686746988], [694928.391552821, 2574908.6867469884], [694908.3915631204, 2574928.686746988], [694908.391552617, 2574938.686746988], [694898.391566265, 2574948.68673334], [694878.3915646141, 2574948.6867469884], [694878.3915613068, 2574968.6867469884], [694868.3915650382, 2574978.686746988], [694868.391566265, 2575028.6867509875], [694878.3915622659, 2575038.686746988], [694878.3915495469, 2575078.686746988], [694858.391563495, 2575098.686746988], [694858.3915581479, 2575108.6867469875], [694838.391566265, 2575128.6867109197], [694798.3915616455, 2575128.686746988], [694798.3915357268, 2575168.686746988], [694788.391566265, 2575178.6867164494], [694738.3915622525, 2575178.6867469884], [694688.391566265, 2575228.6867164494], [694648.3915616455, 2575228.6867469875], [694648.3915574929, 2575278.686738216]]}}, {"type": "Feature", "properties": {"level": 0.25, "label": "15 min"}, "geometry": {"type": "LineString", "coordinates": [[696008.391566265, 2576118.686746988], [695968.391566265, 2576118.686746988], [695968.391566265, 2576118.686746988], [695968.391566265, 2576078.686746988], [695958.391566265, 2576068.686746988], [695918.391566265, 2576068.686746988], [695918.391566265, 2576068.686746988], [695918.391566265, 2576048.686746988], [695918.391566265, 2576048.686746988], [695968.391566265, 2575998.686746988], [695968.391566265, 2575998.686746988], [696068.391566265, 2575998.686746988], [696088.391566265, 2575978.686746988]]}}, {"type": "Feature", "properties": {"level": 0.25, "label": "15 min"}, "geometry": {"type": "LineString", "coordinates": [[696088.391566265, 2573998.686746988], [696098.391566265, 2573998.686746988], [696098.391566265, 2573998.686746988], [696148.391566265, 2574048.686746988], [696208.391566265, 2574048.686746988], [696218.391566265, 2574038.686746988], [696218.391566265, 2573998.686746988], [696218.391566265, 2573998.686746988], [696268.391566265, 2573948.686746988], [696268.391566265, 2573948.686746988], [696288.391566265, 2573948.686746988], [696288.391566265, 2573948.686746988], [696288.391566265, 2573988.686746988], [696298.391566265, 2573998.686746988], [696338.391566265, 2573998.686746988], [696338.391566265, 2573998.686746988], [696338.391566265, 2574038.686746988], [696348.391566265, 2574048.686746988], [696538.391566265, 2574048.686746988], [696538.391566265, 2574048.686746988], [696538.391566265, 2574088.686746988], [696548.391566265, 2574098.686746988], [696598.391566265, 2574098.686746988], [696598.391566265, 2574098.686746988], [696638.391566265, 2574138.686746988], [696638.391566265, 2574138.686746988], [696638.391566265, 2574188.686746988], [696648.391566265, 2574198.686746988], [696688.391566265, 2574198.686746988], [696688.391566265, 2574198.686746988], [696688.391566265, 2574388.686746988], [696698.391566265, 2574398.686746988], [696738.391566265, 2574398.686746988], [696738.391566265, 2574398.686746988], [696738.391566265, 2574488.686746988], [696748.391566265, 2574498.686746988], [696838.391566265, 2574498.686746988], [696838.391566265, 2574498.686746988], [696838.391566265, 2574618.686746988], [696838.391566265, 2574618.686746988], [696788.391566265, 2574668.686746988], [696788.391566265, 2574688.686746988], [696798.391566265, 2574698.686746988], [696838.391566265, 2574698.686746988], [696838.391566265, 2574698.686746988], [696838.391566265, 2574758.686746988], [696848.391566265, 2574768.686746988]]}}, {"type": "Feature", "properties": {"level": 0.25, "label": "15 min"}, "geometry": {"type": "LineString", "coordinates": [[693718.391566265, 2573028.686746988], [693718.391566265, 2572998.686746988], [693718.391566265, 2572998.686746988], [693758.391566265, 2572998.686746988], [693768.391566265, 2572988.686746988], [693768.391566265, 2572898.686746988], [693768.391566265, 2572898.686746988], [693838.391566265, 2572898.686746988], [693838.391566265, 2572898.686746988], [693838.391566265, 2572938.686746988], [693848.391566265, 2572943.7386352154], [693851.867163973, 2572948.686746988], [693888.391566265, 2572985.21114928], [693893.7788296518, 2572988.6867469875], [693898.391566265, 2572998.686746988], [693908.391566265, 2572998.686746988], [693918.391566265, 2572988.686746988], [693918.391566265, 2572948.686746988], [693918.391566265, 2572948.686746988], [694048.391566265, 2572948.686746988], [694048.391566265, 2572948.686746988], [694138.391566265, 2573038.686746988], [694138.391566265, 2573038.686746988], [694138.391566265, 2573088.686746988], [694148.391566265, 2573098.686746988], [694208.391566265, 2573098.686746988], [694218.391566265, 2573088.686746988], [694218.391566265, 2573048.686746988], [694218.391566265, 2573048.686746988], [694318.391566265, 2573048.686746988], [694368.391566265, 2572998.686746988], [694368.391566265, 2572998.686746988], [694458.391566265, 2572998.686746988], [694468.391566265, 2572988.686746988], [694468.391566265, 2572948.686746988], [694468.391566265, 2572948.686746988], [694658.391566265, 2572948.686746988], [694668.391566265, 2572938.686746988], [694668.391566265, 2572898.686746988], [694668.391566265, 2572898.686746988], [694718.391566265, 2572848.686746988], [694718.391566265, 2572848.686746988], [695068.391566265, 2572848.686746988], [695088.391566265, 2572828.686746988], [695088.391566265, 2572828.686746988], [695098.391566265, 2572828.686746988], [695118.391566265, 2572808.686746988], [695118.391566265, 2572808.686746988], [695148.391566265, 2572808.686746988], [695148.391566265, 2572808.686746988], [695158.391566265, 2572818.686746988], [695168.391566265, 2572818.686746988], [695178.391566265, 2572808.686746988], [695178.391566265, 2572808.686746988], [695208.391566265, 2572808.686746988], [695208.391566265, 2572808.686746988], [695218.391566265, 2572818.686746988], [695218.391566265, 2572818.686746988], [695218.391566265, 2572828.686746988], [695238.391566265, 2572848.686746988], [695238.391566265, 2572848.686746988], [695238.391566265, 2572858.686746988], [695258.391566265, 2572878.686746988], [695258.391566265, 2572878.686746988], [695258.391566265, 2572888.686746988], [695288.391566265, 2572918.686746988], [695288.391566265, 2572918.686746988], [695288.391566265, 2572928.686746988], [695308.391566265, 2572948.686746988], [695308.391566265, 2572948.686746988], [695308.391566265, 2572958.686746988], [695328.391566265, 2572978.686746988], [695328.391566265, 2572978.686746988], [695328.391566265, 2572988.686746988], [695358.391566265, 2573018.686746988], [695358.391566265, 2573018.686746988], [695358.391566265, 2573028.686746988], [695388.391566265, 2573058.686746988], [695388.391566265, 2573058.686746988], [695388.391566265, 2573068.686746988], [695408.391566265, 2573088.686746988], [695428.391566265, 2573088.686746988], [695428.391566265, 2573088.686746988], [695428.391566265, 2573098.686746988], [695438.391566265, 2573108.686746988], [695468.391566265, 2573108.686746988], [695468.391566265, 2573108.686746988], [695478.391566265, 2573118.686746988], [695518.391566265, 2573118.686746988], [695518.391566265, 2573118.686746988], [695558.391566265, 2573158.686746988], [695588.391566265, 2573158.686746988], [695598.391566265, 2573148.686746988], [695598.391566265, 2573148.686746988], [695658.391566265, 2573148.686746988], [695668.391566265, 2573138.686746988], [695668.391566265, 2573098.686746988], [695668.391566265, 2573098.686746988], [695698.391566265, 2573098.686746988], [695698.391566265, 2573098.686746988], [695738.391566265, 2573138.686746988], [695738.391566265, 2573138.686746988], [695738.391566265, 2573188.686746988], [695748.391566265, 2573198.686746988], [695898.391566265, 2573198.686746988], [695898.391566265, 2573198.686746988], [695948.391566265, 2573248.686746988], [695998.391566265, 2573248.686746988], [695998.391566265, 2573248.686746988], [696038.391566265, 2573288.686746988], [696038.391566265, 2573288.686746988], [696038.391566265, 2573338.686746988], [696098.391566265, 2573398.686746988], [696198.391566265, 2573398.686746988], [696198.391566265, 2573398.686746988], [696238.391566265, 2573438.686746988], [696238.391566265, 2573438.686746988], [696238.391566265, 2573568.686746988], [696238.391566265, 2573568.686746988], [696198.391566265, 2573568.686746988], [696188.391566265, 2573578.686746988], [696188.391566265, 2573668.686746988], [696188.391566265, 2573668.686746988], [696038.391566265, 2573818.686746988], [696038.391566265, 2573868.686746988], [696038.391566265, 2573868.686746988], [695998.391566265, 2573868.686746988], [695988.391566265, 2573878.686746988], [695988.391566265, 2573938.686746988], [696008.391566265, 2573958.686746988], [696008.391566265, 2573958.686746988]]}}, {"type": "Feature", "properties": {"level": 0.5, "label": "30 min"}, "geometry": {"type": "LineString", "coordinates": [[693578.391566265, 2572598.686746988], [693578.391566265, 2572588.686746988], [693578.391566265, 2572588.686746988], [693588.391566265, 2572578.686746988], [693588.391566265, 2572578.686746988], [693598.391566265, 2572568.686746988], [693598.391566265, 2572568.686746988], [693608.391566265, 2572558.686746988], [693608.391566265, 2572558.686746988], [693618.391566265, 2572548.686746988], [693618.391566265, 2572538.686746988], [693618.391566265, 2572528.686746988], [693618.391566265, 2572518.686746988], [693618.391566265, 2572508.686746988], [693618.391566265, 2572498.686746988], [693618.391566265, 2572488.686746988], [693618.391566265, 2572478.686746988], [693618.391566265, 2572468.686746988], [693618.391566265, 2572458.686746988], [693618.391566265, 2572448.686746988], [693618.391566265, 2572438.686746988], [693618.391566265, 2572428.686746988], [693618.391566265, 2572418.686746988], [693618.391566265, 2572408.686746988], [693618.391566265, 2572398.686746988], [693618.391566265, 2572388.686746988], [693618.391566265, 2572378.686746988], [693618.391566265, 2572368.686746988], [693618.391566265, 2572358.686746988], [693618.391566265, 2572348.686746988], [693618.391566265, 2572348.686746988], [693628.391566265, 2572338.686746988], [693628.391566265, 2572338.686746988], [693638.391566265, 2572328.686746988], [693638.391566265, 2572328.686746988], [693648.391566265, 2572318.686746988], [693648.391566265, 2572318.686746988], [693658.391566265, 2572308.686746988], [693658.391566265, 2572308.686746988], [693668.391566265, 2572298.686746988], [693668.391566265, 2572298.686746988], [693678.391566265, 2572298.686746988], [693688.391566265, 2572298.686746988], [693698.391566265, 2572298.686746988], [693708.391566265, 2572298.686746988], [693718.391566265, 2572298.686746988], [693728.391566265, 2572298.686746988], [693738.391566265, 2572298.686746988], [693748.391566265, 2572298.686746988], [693758.391566265, 2572298.686746988], [693768.391566265, 2572298.686746988], [693778.391566265, 2572298.686746988], [693788.391566265, 2572298.686746988], [693798.391566265, 2572298.686746988], [693808.391566265, 2572298.686746988], [693818.391566265, 2572288.686746988], [693818.391566265, 2572278.686746988], [693818.391566265, 2572268.686746988], [693818.391566265, 2572258.686746988], [693818.391566265, 2572248.686746988], [693818.391566265, 2572248.686746988], [693828.391566265, 2572238.686746988], [693828.391566265, 2572238.686746988], [693838.391566265, 2572228.686746988], [693838.391566265, 2572228.686746988], [693848.391566265, 2572218.686746988], [693848.391566265, 2572218.686746988], [693858.391566265, 2572208.686746988], [693848.391566265, 2572198.686746988], [693848.391566265, 2572198.686746988], [693838.391566265, 2572188.686746988], [693838.391566265, 2572188.686746988], [693828.391566265, 2572178.686746988], [693828.391566265, 2572178.686746988], [693818.391566265, 2572168.686746988], [693818.391566265, 2572168.686746988], [693818.391566265, 2572158.686746988], [693818.391566265, 2572148.686746988], [693818.391566265, 2572138.686746988], [693818.391566265, 2572128.686746988], [693818.391566265, 2572118.686746988], [693818.391566265, 2572108.686746988], [693818.391566265, 2572098.686746988], [693818.391566265, 2572088.686746988], [693818.391566265, 2572078.686746988], [693818.391566265, 2572068.686746988], [693818.391566265, 2572058.686746988], [693818.391566265, 2572048.686746988], [693818.391566265, 2572048.686746988], [693828.391566265, 2572038.686746988], [693828.391566265, 2572038.686746988], [693838.391566265, 2572028.686746988], [693838.391566265, 2572028.686746988], [693848.391566265, 2572018.686746988], [693848.391566265, 2572018.686746988], [693858.391566265, 2572008.686746988], [693858.391566265, 2572008.686746988], [693868.391566265, 2571998.686746988], [693868.391566265, 2571988.686746988], [693868.391566265, 2571978.686746988], [693868.391566265, 2571968.686746988], [693868.391566265, 2571958.686746988], [693868.391566265, 2571948.686746988], [693868.391566265, 2571948.686746988], [693878.391566265, 2571948.686746988], [693888.391566265, 2571948.686746988], [693898.391566265, 2571948.686746988], [693898.391566265, 2571948.686746988], [693908.391566265, 2571958.686746988], [693908.391566265, 2571958.686746988], [693918.391566265, 2571968.686746988], [693918.391566265, 2571968.686746988], [693928.391566265, 2571978.686746988], [693928.391566265, 2571978.686746988], [693938.391566265, 2571988.686746988], [693938.391566265, 2571988.686746988], [693948.391566265, 2571998.686746988], [693958.391566265, 2571998.686746988], [693968.391566265, 2571998.686746988], [693978.391566265, 2571988.686746988], [693978.391566265, 2571988.686746988], [693988.391566265, 2571978.686746988], [693988.391566265, 2571978.686746988], [693998.391566265, 2571968.686746988], [693998.391566265, 2571968.686746988], [694008.391566265, 2571958.686746988], [694008.391566265, 2571958.686746988], [694018.391566265, 2571948.686746988], [694018.391566265, 2571948.686746988], [694028.391566265, 2571948.686746988], [694038.391566265, 2571948.686746988], [694048.391566265, 2571948.686746988], [694058.391566265, 2571948.686746988], [694068.391566265, 2571948.686746988], [694078.391566265, 2571948.686746988], [694088.391566265, 2571948.686746988], [694098.391566265, 2571948.686746988], [694108.391566265, 2571948.686746988], [694118.391566265, 2571948.686746988], [694128.391566265, 2571948.686746988], [694138.391566265, 2571948.686746988], [694148.391566265, 2571948.686746988], [694158.391566265, 2571948.686746988], [694168.391566265, 2571948.686746988], [694178.391566265, 2571948.686746988], [694188.391566265, 2571948.686746988], [694198.391566265, 2571948.686746988], [694208.391566265, 2571948.686746988], [694218.391566265, 2571938.686746988], [694218.391566265, 2571928.686746988], [694218.391566265, 2571918.686746988], [694218.391566265, 2571908.686746988], [694218.391566265, 2571898.686746988], [694218.391566265, 2571898.686746988], [694228.391566265, 2571898.686746988], [694238.391566265, 2571898.686746988], [694248.391566265, 2571898.686746988], [694258.391566265, 2571898.686746988], [694268.391566265, 2571898.686746988], [694278.391566265, 2571898.686746988], [694288.391566265, 2571898.686746988], [694298.391566265, 2571898.686746988], [694308.391566265, 2571898.686746988], [694318.391566265, 2571898.686746988], [694328.391566265, 2571888.686746988], [694328.391566265, 2571888.686746988], [694338.391566265, 2571878.686746988], [694338.391566265, 2571878.686746988], [694348.391566265, 2571868.686746988], [694348.391566265, 2571868.686746988], [694358.391566265, 2571858.686746988], [694358.391566265, 2571858.686746988], [694368.391566265, 2571848.686746988], [694368.391566265, 2571848.686746988], [694378.391566265, 2571848.686746988], [694388.391566265, 2571848.686746988], [694398.391566265, 2571848.686746988], [694408.391566265, 2571848.686746988], [694418.391566265, 2571848.686746988], [694428.391566265, 2571848.686746988], [694438.391566265, 2571848.686746988], [694448.391566265, 2571848.686746988], [694458.391566265, 2571848.686746988], [694468.391566265, 2571848.686746988], [694478.391566265, 2571848.686746988], [694488.391566265, 2571848.686746988], [694498.391566265, 2571848.686746988], [694508.391566265, 2571848.686746988], [694518.391566265, 2571848.686746988], [694528.391566265, 2571848.686746988], [694538.391566265, 2571848.686746988], [694548.391566265, 2571848.686746988], [694558.391566265, 2571848.686746988], [694568.391566265, 2571838.686746988], [694568.391566265, 2571828.686746988], [694568.391566265, 2571818.686746988], [694568.391566265, 2571808.686746988], [694568.391566265, 2571798.686746988], [694568.391566265, 2571798.686746988], [694578.391566265, 2571798.686746988], [694588.391566265, 2571798.686746988], [694598.391566265, 2571798.686746988], [694608.391566265, 2571798.686746988], [694618.391566265, 2571798.686746988], [694628.391566265, 2571788.686746988], [694628.391566265, 2571788.686746988], [694638.391566265, 2571788.686746988], [694648.391566265, 2571788.686746988], [694658.391566265, 2571778.686746988], [694658.391566265, 2571778.686746988], [694668.391566265, 2571778.686746988], [694678.391566265, 2571768.686746988], [694678.391566265, 2571768.686746988], [694688.391566265, 2571768.686746988], [694698.391566265, 2571768.686746988], [694708.391566265, 2571768.686746988], [694718.391566265, 2571768.686746988], [694728.391566265, 2571768.686746988], [694728.391566265, 2571768.686746988], [694738.391566265, 2571778.686746988], [694748.391566265, 2571778.686746988], [694748.391566265, 2571778.686746988], [694758.391566265, 2571788.686746988], [694768.391566265, 2571788.686746988], [694768.391566265, 2571788.686746988], [694778.391566265, 2571798.686746988], [694778.391566265, 2571798.686746988], [694778.391566265, 2571808.686746988], [694788.391566265, 2571818.686746988], [694788.391566265, 2571818.686746988], [694788.391566265, 2571828.686746988], [694788.391566265, 2571838.686746988], [694798.391566265, 2571848.686746988], [694798.391566265, 2571848.686746988], [694798.391566265, 2571858.686746988], [694798.391566265, 2571868.686746988], [694808.391566265, 2571878.686746988], [694818.391566265, 2571878.686746988], [694828.391566265, 2571878.686746988], [694838.391566265, 2571878.686746988], [694848.391566265, 2571878.686746988], [694858.391566265, 2571878.686746988], [694868.391566265, 2571878.686746988], [694878.391566265, 2571878.686746988], [694878.391566265, 2571878.686746988], [694878.391566265, 2571888.686746988], [694878.391566265, 2571898.686746988], [694878.391566265, 2571898.686746988], [694868.391566265, 2571908.686746988], [694868.391566265, 2571908.686746988], [694858.391566265, 2571918.686746988], [694858.391566265, 2571918.686746988], [694848.391566265, 2571918.686746988], [694838.391566265, 2571928.686746988], [694838.391566265, 2571928.686746988], [694828.391566265, 2571938.686746988], [694828.391566265, 2571948.686746988], [694828.391566265, 2571958.686746988], [694828.391566265, 2571968.686746988], [694838.391566265, 2571978.686746988], [694838.391566265, 2571978.686746988], [694838.391566265, 2571988.686746988], [694838.391566265, 2571998.686746988], [694848.391566265, 2572008.686746988], [694858.391566265, 2571998.686746988], [694858.391566265, 2571988.686746988], [694858.391566265, 2571978.686746988], [694858.391566265, 2571968.686746988], [694858.391566265, 2571968.686746988], [694868.391566265, 2571968.686746988], [694878.391566265, 2571958.686746988], [694878.391566265, 2571958.686746988], [694888.391566265, 2571958.686746988], [694898.391566265, 2571948.686746988], [694898.391566265, 2571948.686746988], [694908.391566265, 2571948.686746988], [694918.391566265, 2571948.686746988], [694928.391566265, 2571948.686746988], [694938.391566265, 2571948.686746988], [694948.391566265, 2571948.686746988], [694948.391566265, 2571948.686746988], [694958.391566265, 2571958.686746988], [694958.391566265, 2571958.686746988], [694968.391566265, 2571968.686746988], [694968.391566265, 2571968.686746988], [694978.391566265, 2571978.686746988], [694988.391566265, 2571978.686746988], [694998.391566265, 2571968.686746988], [694998.391566265, 2571968.686746988], [695008.391566265, 2571958.686746988], [695008.391566265, 2571958.686746988], [695018.391566265, 2571948.686746988], [695018.391566265, 2571948.686746988], [695028.391566265, 2571948.686746988], [695038.391566265, 2571948.686746988], [695048.391566265, 2571948.686746988], [695058.391566265, 2571948.686746988], [695068.391566265, 2571948.686746988], [695078.391566265, 2571948.686746988], [695088.391566265, 2571948.686746988], [695098.391566265, 2571948.686746988], [695108.391566265, 2571948.686746988], [695118.391566265, 2571948.686746988], [695128.391566265, 2571948.686746988], [695138.391566265, 2571948.686746988], [695138.391566265, 2571948.686746988], [695138.391566265, 2571958.686746988], [695138.391566265, 2571968.686746988], [695138.391566265, 2571978.686746988], [695138.391566265, 2571988.686746988], [695148.391566265, 2571998.686746988], [695158.391566265, 2571998.686746988], [695168.391566265, 2571998.686746988], [695178.391566265, 2571998.686746988], [695188.391566265, 2571998.686746988], [695198.391566265, 2571998.686746988], [695208.391566265, 2571998.686746988], [695218.391566265, 2571998.686746988], [695228.391566265, 2571998.686746988], [695238.391566265, 2571998.686746988], [695248.391566265, 2571998.686746988], [695258.391566265, 2571998.686746988], [695268.391566265, 2571998.686746988], [695278.391566265, 2571998.686746988], [695288.391566265, 2571998.686746988], [695298.391566265, 2571998.686746988], [695308.391566265, 2571998.686746988], [695318.391566265, 2571998.686746988], [695328.391566265, 2571998.686746988], [695338.391566265, 2571998.686746988], [695348.391566265, 2571998.686746988], [695358.391566265, 2571998.686746988], [695368.391566265, 2571998.686746988], [695378.391566265, 2571998.686746988], [695388.391566265, 2571998.686746988], [695398.391566265, 2571998.686746988], [695408.391566265, 2571998.686746988], [695418.391566265, 2571998.686746988], [695428.391566265, 2571998.686746988], [695438.391566265, 2571998.686746988], [695448.391566265, 2571998.686746988], [695458.391566265, 2571998.686746988], [695468.391566265, 2571998.686746988], [695478.391566265, 2571988.686746988], [695478.391566265, 2571988.686746988], [695488.391566265, 2571978.686746988], [695488.391566265, 2571978.686746988], [695498.391566265, 2571968.686746988], [695498.391566265, 2571968.686746988], [695508.391566265, 2571958.686746988], [695508.391566265, 2571958.686746988], [695518.391566265, 2571948.686746988], [695518.391566265, 2571948.686746988], [695528.391566265, 2571948.686746988], [695538.391566265, 2571948.686746988], [695548.391566265, 2571938.686746988], [695548.391566265, 2571938.686746988], [695558.391566265, 2571938.686746988], [695568.391566265, 2571938.686746988], [695578.391566265, 2571938.686746988], [695588.391566265, 2571938.686746988], [695598.391566265, 2571938.686746988], [695608.391566265, 2571938.686746988], [695618.391566265, 2571938.686746988], [695628.391566265, 2571938.686746988], [695638.391566265, 2571938.686746988], [695648.391566265, 2571938.686746988], [695658.391566265, 2571938.686746988], [695668.391566265, 2571938.686746988], [695678.391566265, 2571928.686746988], [695678.391566265, 2571918.686746988], [695678.391566265, 2571908.686746988], [695678.391566265, 2571908.686746988], [695688.391566265, 2571898.686746988], [695688.391566265, 2571898.686746988], [695698.391566265, 2571898.686746988], [695708.391566265, 2571898.686746988], [695718.391566265, 2571898.686746988], [695728.391566265, 2571898.686746988], [695728.391566265, 2571898.686746988], [695728.391566265, 2571908.686746988], [695728.391566265, 2571918.686746988], [695728.391566265, 2571928.686746988], [695738.391566265, 2571938.686746988], [695738.391566265, 2571938.686746988], [695748.391566265, 2571948.686746988], [695758.391566265, 2571948.686746988], [695768.391566265, 2571948.686746988], [695778.391566265, 2571948.686746988], [695778.391566265, 2571948.686746988], [695778.391566265, 2571958.686746988], [695788.391566265, 2571968.686746988], [695788.391566265, 2571968.686746988], [695798.391566265, 2571978.686746988], [695798.391566265, 2571978.686746988], [695798.391566265, 2571988.686746988], [695798.391566265, 2571998.686746988], [695798.391566265, 2572008.686746988], [695798.391566265, 2572018.686746988], [695808.391566265, 2572028.686746988], [695808.391566265, 2572028.686746988], [695818.391566265, 2572038.686746988], [695818.391566265, 2572038.686746988], [695828.391566265, 2572048.686746988], [695838.391566265, 2572048.686746988], [695848.391566265, 2572048.686746988], [695858.391566265, 2572048.686746988], [695868.391566265, 2572048.686746988], [695878.391566265, 2572038.686746988], [695878.391566265, 2572028.686746988], [695878.391566265, 2572028.686746988], [695888.391566265, 2572018.686746988], [695888.391566265, 2572018.686746988], [695898.391566265, 2572008.686746988], [695898.391566265, 2572008.686746988], [695908.391566265, 2572008.686746988], [695918.391566265, 2571998.686746988], [695918.391566265, 2571988.686746988], [695918.391566265, 2571978.686746988], [695918.391566265, 2571968.686746988], [695918.391566265, 2571958.686746988], [695918.391566265, 2571948.686746988], [695918.391566265, 2571948.686746988], [695928.391566265, 2571948.686746988], [695938.391566265, 2571948.686746988], [695948.391566265, 2571948.686746988], [695958.391566265, 2571948.686746988], [695968.391566265, 2571948.686746988], [695978.391566265, 2571948.686746988], [695988.391566265, 2571948.686746988], [695998.391566265, 2571948.686746988], [696008.391566265, 2571948.686746988], [696018.391566265, 2571948.686746988], [696028.391566265, 2571938.686746988], [696028.391566265, 2571938.686746988], [696038.391566265, 2571928.686746988], [696038.391566265, 2571928.686746988], [696048.391566265, 2571918.686746988], [696048.391566265, 2571918.686746988], [696058.391566265, 2571908.686746988], [696058.391566265, 2571908.686746988], [696068.391566265, 2571898.686746988], [696068.391566265, 2571898.686746988], [696078.391566265, 2571888.686746988], [696078.391566265, 2571888.686746988], [696088.391566265, 2571878.686746988], [696088.391566265, 2571878.686746988], [696098.391566265, 2571868.686746988], [696098.391566265, 2571868.686746988], [696108.391566265, 2571858.686746988], [696108.391566265, 2571858.686746988], [696118.391566265, 2571848.686746988], [696118.391566265, 2571848.686746988], [696128.391566265, 2571848.686746988], [696138.391566265, 2571848.686746988], [696148.391566265, 2571848.686746988], [696158.391566265, 2571848.686746988], [696168.391566265, 2571848.686746988], [696178.391566265, 2571848.686746988], [696188.391566265, 2571848.686746988], [696198.391566265, 2571848.686746988], [696198.391566265, 2571848.686746988], [696208.391566265, 2571858.686746988], [696208.391566265, 2571858.686746988], [696218.391566265, 2571868.686746988], [696218.391566265, 2571868.686746988], [696228.391566265, 2571878.686746988], [696228.391566265, 2571878.686746988], [696238.391566265, 2571888.686746988], [696238.391566265, 2571888.686746988], [696248.391566265, 2571898.686746988], [696258.391566265, 2571898.686746988], [696268.391566265, 2571898.686746988], [696278.391566265, 2571898.686746988], [696288.391566265, 2571898.686746988], [696298.391566265, 2571898.686746988], [696308.391566265, 2571898.686746988], [696318.391566265, 2571898.686746988], [696328.391566265, 2571898.686746988], [696338.391566265, 2571898.686746988], [696348.391566265, 2571898.686746988], [696358.391566265, 2571898.686746988], [696368.391566265, 2571898.686746988], [696378.391566265, 2571898.686746988], [696388.391566265, 2571898.686746988], [696398.391566265, 2571898.686746988], [696408.391566265, 2571898.686746988], [696418.391566265, 2571898.686746988], [696428.391566265, 2571898.686746988], [696438.391566265, 2571898.686746988], [696438.391566265, 2571898.686746988], [696438.391566265, 2571908.686746988], [696438.391566265, 2571918.686746988], [696438.391566265, 2571928.686746988], [696438.391566265, 2571938.686746988], [696438.391566265, 2571948.686746988], [696438.391566265, 2571958.686746988], [696438.391566265, 2571968.686746988], [696438.391566265, 2571978.686746988], [696438.391566265, 2571988.686746988], [696448.391566265, 2571998.686746988], [696458.391566265, 2571998.686746988], [696468.391566265, 2571998.686746988], [696478.391566265, 2571998.686746988], [696488.391566265, 2571998.686746988], [696498.391566265, 2571998.686746988], [696508.391566265, 2571998.686746988], [696518.391566265, 2571998.686746988], [696528.391566265, 2571998.686746988], [696538.391566265, 2571998.686746988], [696538.391566265, 2571998.686746988], [696538.391566265, 2572008.686746988], [696538.391566265, 2572018.686746988], [696538.391566265, 2572028.686746988], [696538.391566265, 2572038.686746988], [696548.391566265, 2572048.686746988], [696548.391566265, 2572048.686746988], [696558.391566265, 2572058.686746988], [696558.391566265, 2572058.686746988], [696568.391566265, 2572068.686746988], [696568.391566265, 2572068.686746988], [696578.391566265, 2572078.686746988], [696578.391566265, 2572078.686746988], [696588.391566265, 2572088.686746988], [696588.391566265, 2572088.686746988], [696598.391566265, 2572098.686746988], [696608.391566265, 2572098.686746988], [696618.391566265, 2572098.686746988], [696628.391566265, 2572098.686746988], [696638.391566265, 2572098.686746988], [696648.391566265, 2572098.686746988], [696658.391566265, 2572098.686746988], [696668.391566265, 2572098.686746988], [696678.391566265, 2572098.686746988], [696688.391566265, 2572098.686746988], [696698.391566265, 2572098.686746988], [696698.391566265, 2572098.686746988], [696708.391566265, 2572108.686746988], [696708.391566265, 2572108.686746988]]}}]}