{"type": "FeatureCollection", "crs": {"type": "name", "properties": {"name": "urn:ogc:def:crs:EPSG::32640"}}, "features": [{"type": "Feature", "properties": {"name": "J1", "kind": "Junction", "downstream": "R1", "used": false}, "geometry": {"type": "Point", "coordinates": [665076.4608433734, 2568962.834337349]}}, {"type": "Feature", "properties": {"name": "J2", "kind": "Junction", "downstream": "R2", "used": false}, "geometry": {"type": "Point", "coordinates": [669958.0722891566, 2569666.9849397587]}}, {"type": "Feature", "properties": {"name": "J3", "kind": "Junction", "downstream": "R3", "used": false}, "geometry": {"type": "Point", "coordinates": [675184.2680722892, 2571220.111445783]}}, {"type": "Feature", "properties": {"name": "J4", "kind": "Junction", "downstream": "R4", "used": false}, "geometry": {"type": "Point", "coordinates": [676188.0572289156, 2573202.719879518]}}, {"type": "Feature", "properties": {"name": "J5", "kind": "Junction", "downstream": "R5", "used": false}, "geometry": {"type": "Point", "coordinates": [677096.9608433734, 2577063.063253012]}}, {"type": "Feature", "properties": {"name": "J6", "kind": "Junction", "downstream": "R6", "used": false}, "geometry": {"type": "Point", "coordinates": [680852.4307228916, 2574191.5271084337]}}, {"type": "Feature", "properties": {"name": "J7", "kind": "Junction", "downstream": "R7", "used": false}, "geometry": {"type": "Point", "coordinates": [683679.0210843374, 2573002.960843373]}}, {"type": "Feature", "properties": {"name": "J8", "kind": "Junction", "downstream": "R8", "used": false}, "geometry": {"type": "Point", "coordinates": [687784.0692771084, 2572920.560240964]}}, {"type": "Feature", "properties": {"name": "J9", "kind": "Junction", "downstream": "Reach-1", "used": false}, "geometry": {"type": "Point", "coordinates": [679576.469879518, 2580286.6746987947]}}, {"type": "Feature", "properties": {"name": "Majlas Dam", "kind": "Junction", "downstream": "Majlas Dam Reservoir", "used": true}, "geometry": {"type": "Point", "coordinates": [691652.7719787522, 2572951.2178337877]}}, {"type": "Feature", "properties": {"name": "J10", "kind": "Junction", "downstream": "Rdn3", "used": false}, "geometry": {"type": "Point", "coordinates": [694435.6132692551, 2574445.9088802347]}}, {"type": "Feature", "properties": {"name": "J11", "kind": "Junction", "downstream": "Rdn2", "used": true}, "geometry": {"type": "Point", "coordinates": [692661.7885952604, 2575020.414543224]}}, {"type": "Feature", "properties": {"name": "J12", "kind": "Junction", "downstream": "Rdn4", "used": false}, "geometry": {"type": "Point", "coordinates": [694695.593319883, 2574947.1242828774]}}, {"type": "Feature", "properties": {"name": "O1", "kind": "Junction", "downstream": "", "used": false}, "geometry": {"type": "Point", "coordinates": [695953.8742908329, 2575401.2892813613]}}, {"type": "Feature", "properties": {"name": "Majlas Dam Reservoir", "kind": "Reservoir", "downstream": "Rdn1", "used": false}, "geometry": {"type": "Point", "coordinates": [691795.5841974459, 2572996.0540410453]}}, {"type": "Feature", "properties": {"name": "Jsouth", "kind": "Junction", "downstream": "", "used": true}, "geometry": {"type": "Point", "coordinates": [692935.4149210836, 2568525.382232546]}}]}