{"type": "FeatureCollection", "features": [{"type": "Feature", "properties": {"name": "Outflow Sea", "type": "External"}, "geometry": {"type": "LineString", "coordinates": [[696342.708897987, 2576241.30987939], [696938.987638311, 2574649.35814815], [697387.150850236, 2573294.70999409], [697868.782482949, 2572403.15384733], [697741.70657285, 2572239.17549782]]}}, {"type": "Feature", "properties": {"name": "Majlas Dam", "type": "External"}, "geometry": {"type": "LineString", "coordinates": [[683379.952266979, 2572919.51877278], [683471.551638245, 2572680.24014417]]}}, {"type": "Feature", "properties": {"name": "J11", "type": "External"}, "geometry": {"type": "LineString", "coordinates": [[692579.673357531, 2575189.36965819], [692487.474847825, 2575164.22461009]]}}, {"type": "Feature", "properties": {"name": "Jsouth", "type": "External"}, "geometry": {"type": "LineString", "coordinates": [[692734.065832437, 2568214.17865289], [692897.543394641, 2568088.42668196]]}}, {"type": "Feature", "properties": {"name": "Outflow 2", "type": "External"}, "geometry": {"type": "LineString", "coordinates": [[697054.102455389, 2569311.31813574], [696463.766814098, 2568284.34370651]]}}], "crs": {"type": "name", "properties": {"name": "urn:ogc:def:crs:EPSG::32640"}}}